PK;NOMBRE;DESCRIPCION-ENTIDAD;HORARIO;EQUIPAMIENTO;TRANSPORTE;DESCRIPCION;ACCESIBILIDAD;CONTENT-URL;NOMBRE-VIA;CLASE-VIAL;TIPO-NUM;NUM;PLANTA;PUERTA;ESCALERAS;ORIENTACION;LOCALIDAD;PROVINCIA;CODIGO-POSTAL;COD-BARRIO;BARRIO;COD-DISTRITO;DISTRITO;COORDENADA-X;COORDENADA-Y;LATITUD;LONGITUD;TELEFONO;FAX;EMAIL;TIPO;
2392;"Auditorio al aire libre Berlín";"Su mantenimiento es competencia de la Junta de Distrito de Chamartín.  Actividades: espectáculos variados durante los meses de verano.";"";"";"Metro: Concha Espina (línea 9).  Bus: 16, 29, 52.  Bicimad: Estación 197 (avenida de Concha Espina, 34).  Aparcamiento: Museo de la Ciudad (51) calle Príncipe de Vergara 152 y calle Pechuán.";"";"1";"http://www.madrid.es/sites/v/index.jsp?vgnextchannel=bfa48ab43d6bb410VgnVCM100000171f5a0aRCRD&vgnextoid=34137b503a71c010VgnVCM1000000b205a0aRCRD";"SAN ERNESTO";"CALLE";"V";"10";"";"";"";"";"MADRID";"MADRID";"28002";"3";"CIUDAD JARDIN";"5";"CHAMARTIN";"442714";"4477836";"40.449208447370104";"-3.6755539136331894";"";"";"";"/contenido/entidadesYorganismos/AuditoriosSalasConcierto"; 
10290803;"Auditorio al Aire Libre Recinto Ferial Vicálvaro";"";"";"";"Metro: Puerta de Arganda (Línea 9).  Bus: 100, 106, 159.  Cercanías RENFE: Vicálvaro (Líneas C2, C7, C8 y Regional).";"";"1";"http://www.madrid.es/sites/v/index.jsp?vgnextchannel=bfa48ab43d6bb410VgnVCM100000171f5a0aRCRD&vgnextoid=883ba0701d0da510VgnVCM1000001d4a900aRCRD";"POLIDEPORTIVO";"PASEO";"V";"142";"";"";"";"";"MADRID";"MADRID";"28032";"1";"CASCO H.VICALVARO";"19";"VICALVARO";"449366";"4473005";"40.40612285515847";"-3.5967208460494637";"";"";"";"/contenido/entidadesYorganismos/AuditoriosSalasConcierto"; 
122296;"Auditorio al aire libre. Carlos Jiménez de Parga";"Su mantenimiento es competencia de la Junta de Distrito de Puente de Vallecas.   Actividades : espectáculos variados durante los meses de verano.  Espacio abierto, acceso directo sin vallado.";"";"";"Metro: Miguel Hernández (línea 1).  Bus: 144, 54.";"";"1";"http://www.madrid.es/sites/v/index.jsp?vgnextchannel=bfa48ab43d6bb410VgnVCM100000171f5a0aRCRD&vgnextoid=7d03cbf06c81c010VgnVCM1000000b205a0aRCRD";"RAFAEL ALBERTI";"AVENIDA";"V";"13";"";"";"";"esquina calle Andaluces";"MADRID";"MADRID";"28038";"4";"PALOMERAS SURESTE";"13";"PUENTE DE VALLECAS";"445830";"4471232";"40.389928882222264";"-3.6382448554479936";"915 887 307";"";"cultupvallecas@madrid.es";"/contenido/entidadesYorganismos/AuditoriosSalasConcierto"; 
2395;"Auditorio al aire libre. Centro Cultural el Pozo";"Su mantenimiento es competencia de la Junta de Puente de Vallecas.";"";"Actividades: espectáculos variados durante los meses de verano. Espacio con vallado perimetral y puerta de acceso.";"Bus: 102, 24.  Cercanías Renfe: El Pozo (líneas C2, C7 y Regional).";"";"2";"http://www.madrid.es/sites/v/index.jsp?vgnextchannel=bfa48ab43d6bb410VgnVCM100000171f5a0aRCRD&vgnextoid=8cd27b503a71c010VgnVCM1000000b205a0aRCRD";"ANDALUCES DEL POZO";"CALLE";"V";"1";"";"";"";"con calle Cabo Machichaco";"MADRID";"MADRID";"28053";"1";"ENTREVIAS";"13";"PUENTE DE VALLECAS";"443905";"4469263";"40.372062320145766";"-3.66075779238216";"915 887 307";"";"cultupvallecas@madrid.es";"/contenido/entidadesYorganismos/AuditoriosSalasConcierto"; 
2396;"Auditorio al aire libre. Entrevías";"Su mantenimiento es competencia de la Junta de Puente de Vallecas.   Actividades: espectáculos variados durante los meses de verano. Espacio con vallado perimetral y puerta de acceso.";"";"";"Bus: 111, 102.";"";"2";"http://www.madrid.es/sites/v/index.jsp?vgnextchannel=bfa48ab43d6bb410VgnVCM100000171f5a0aRCRD&vgnextoid=1fe27b503a71c010VgnVCM1000000b205a0aRCRD";"SUR";"RONDA";"V";"";"";"";"";"Altura calle Montánchez";"MADRID";"MADRID";"28053";"1";"ENTREVIAS";"13";"PUENTE DE VALLECAS";"443009";"4469412";"40.37302468875877";"-3.671950235640722";"915 887 307";"";"cultupvallecas@madrid.es";"/contenido/entidadesYorganismos/AuditoriosSalasConcierto"; 
122325;"Auditorio al aire libre. Parque Aluche";"Su mantenimiento es competencia de la Junta de Distrito Latina.  Actividades : espectáculos variados durante los meses de verano.";"";"";"Metro de Madrid. Línea 5. Estación: Aluche.   Autobuses de la  EMT: líneas 25, 121 y 138.   Cercanías RENFE:. Línea C 5. Estación: Aluche.";"";"1";"http://www.madrid.es/sites/v/index.jsp?vgnextchannel=bfa48ab43d6bb410VgnVCM100000171f5a0aRCRD&vgnextoid=0023cbf06c81c010VgnVCM1000000b205a0aRCRD";"ILLESCAS";"CALLE";"V";"149";"";"";"";"";"MADRID";"MADRID";"28047";"4";"ALUCHE";"10";"LATINA";"435554";"4471619";"40.392680212409495";"-3.7593572957930554";"";"";"";"/contenido/entidadesYorganismos/AuditoriosSalasConcierto"; 
10290753;"Auditorio al aire libre. Parque Amós Acero";"Su mantenimiento es competencia de la Junta de Distrito de Puente de Vallecas.   Actividades: Espectáculos variados durante los meses de verano. Espacio abierto, acceso directo sin vallado.";"";"";"Bus: 24, 103, 111, 57, 144.";"";"1";"http://www.madrid.es/sites/v/index.jsp?vgnextchannel=bfa48ab43d6bb410VgnVCM100000171f5a0aRCRD&vgnextoid=0688a0701d0da510VgnVCM1000001d4a900aRCRD";"SIERRA DE ALQUIFE";"CALLE";"V";"20";"";"";"";"";"MADRID";"MADRID";"28053";"2";"SAN DIEGO";"13";"PUENTE DE VALLECAS";"443462";"4471081";"40.38840925271774";"-3.666129894495819";"915 887 307";"";"cultupvallecas@madrid.es";"/contenido/entidadesYorganismos/AuditoriosSalasConcierto"; 
2393;"Auditorio al aire libre. Parque Cerro Almodóvar";"Su mantenimiento es competencia de la Junta de Distrito de Latina.  Actividades : espectáculos variados durante los meses de verano. Aforo máximo: 1200 espectadores.";"";"";"Metro de Madrid. Línea 6. Estación: Carpetana.  Autobuses de la EMT: Líneas: 17, 25 y 500.";"";"1";"http://www.madrid.es/sites/v/index.jsp?vgnextchannel=bfa48ab43d6bb410VgnVCM100000171f5a0aRCRD&vgnextoid=eb437b503a71c010VgnVCM1000000b205a0aRCRD";"MARCELINO CASTILLO";"CALLE";"V";"29";"";"";"";"";"MADRID";"MADRID";"28047";"4";"ALUCHE";"10";"LATINA";"436800";"4471778";"40.39420802732146";"-3.744692836307442";"";"";"";"/contenido/entidadesYorganismos/AuditoriosSalasConcierto"; 
2399;"Auditorio al aire libre. Parque de Canillejas";"Su mantenimiento es competencia de la Junta de Distrito de San Blas - Canillejas.   Actividades: espectáculos variados durante los meses de verano.";"";"";"Metro: Torre Arias (línea 5).  Bus: 28, 48.";"";"0";"http://www.madrid.es/sites/v/index.jsp?vgnextchannel=bfa48ab43d6bb410VgnVCM100000171f5a0aRCRD&vgnextoid=59337b503a71c010VgnVCM1000000b205a0aRCRD";"NECTAR";"CALLE";"V";"32";"";"";"";"";"MADRID";"MADRID";"28022";"7";"CANILLEJAS";"20";"SAN BLAS-CANILLEJAS";"448169";"4477063";"40.442611374955234";"-3.611167964373918";"";"";"";"/contenido/entidadesYorganismos/AuditoriosSalasConcierto"; 
10724346;"Auditorio al aire libre. Parque de la Cuña Verde";"Actividades: cine de verano y espectáculos musicales.";"";"";"Bus: 140, E4";"";"1";"http://www.madrid.es/sites/v/index.jsp?vgnextchannel=bfa48ab43d6bb410VgnVCM100000171f5a0aRCRD&vgnextoid=35f0833f1eec3610VgnVCM1000001d4a900aRCRD";"JOSE BERGAMIN";"CALLE";"V";"1";"";"";"";"";"MADRID";"MADRID";"28030";"3";"MARROQUINA";"14";"MORATALAZ";"445807";"4473480";"40.410178738865554";"-3.6387107324296006";"";"";"";"/contenido/entidadesYorganismos/AuditoriosSalasConcierto"; 
2387;"Auditorio al aire libre. Parque de la Vaguada";"";"";"Templete de Música";"Metro: Peña Grande (línea 7), Barrio del Pilar (línea 9) Bus: 49 , 67 , 83 , 124 , 128 , 132 , 133 , 137";"Mantenimiento:Área de Gobierno de Medio Ambiente y Movilidad";"0";"http://www.madrid.es/sites/v/index.jsp?vgnextchannel=bfa48ab43d6bb410VgnVCM100000171f5a0aRCRD&vgnextoid=7e537b503a71c010VgnVCM1000000b205a0aRCRD";"VAGUADA";"PASEO";"V";"13";"";"";"";"Avenida de Betanzos con Paseo de la Vaguada";"MADRID";"MADRID";"28029";"4";"EL PILAR";"8";"FUENCARRAL-EL PARDO";"439712";"4481297";"40.48016602497203";"-3.7112978051427574";"";"";"";"/contenido/entidadesYorganismos/AuditoriosSalasConcierto"; 
2394;"Auditorio al aire libre. Parque de las Cruces";"Su mantenimiento es competencia de la Junta de Distrito de Latina. Está situado junto al estanque del Parque. Ubicación exacta en Google Maps .  Actividades : espectáculos variados durante los meses de verano.";"";"";"Metro de Madrid. Línea 5. Estación: Aluche. Autobuses de la EMT. Líneas: 47, 118, 121, 131, 155. Cercanías RENFE. Línea C 5. Estación: Aluche.";"";"0";"http://www.madrid.es/sites/v/index.jsp?vgnextchannel=bfa48ab43d6bb410VgnVCM100000171f5a0aRCRD&vgnextoid=93837b503a71c010VgnVCM1000000b205a0aRCRD";"POBLADOS";"AVENIDA";"V";"68";"";"";"";"";"MADRID";"MADRID";"28044";"7";"LAS AGUILAS";"10";"LATINA";"435534";"4470597";"40.383472075956185";"-3.759489504920487";"";"";"";"/contenido/entidadesYorganismos/AuditoriosSalasConcierto"; 
52514;"Auditorio al aire libre. Parque de Olof Palme";"Su mantenimiento es competencia de Medioambiente (Parques y Jardines).   Actividades: espectáculos variados durante los meses de verano.";"";"";"Metro: Plaza Elíptica (líneas 6 y 11).  Bus: 247, 47, 60, 81.";"";"1";"http://www.madrid.es/sites/v/index.jsp?vgnextchannel=bfa48ab43d6bb410VgnVCM100000171f5a0aRCRD&vgnextoid=1185946be351c010VgnVCM2000000c205a0aRCRD";"CERECINOS";"CALLE";"V";"1";"";"";"";"";"MADRID";"MADRID";"28026";"6";"ZOFIO";"12";"USERA";"439527";"4470701";"40.384714506176095";"-3.712457801979168";"";"";"";"/contenido/entidadesYorganismos/AuditoriosSalasConcierto"; 
6622017;"Auditorio al aire libre. Parque de Pradolongo";"Su mantenimiento es competencia de Medioambiente. (Parques y Jardines).  Actividades: espectáculos variados durante los meses de verano.";"";"";"Cercanías Renfe: Orcasitas (línea C5).   Bus: 121.";"";"1";"http://www.madrid.es/sites/v/index.jsp?vgnextchannel=bfa48ab43d6bb410VgnVCM100000171f5a0aRCRD&vgnextoid=0bae296aa2c9a310VgnVCM2000000c205a0aRCRD";"POBLADOS";"AVENIDA";"V";"169";"";"";"";"";"MADRID";"MADRID";"28041";"7";"PRADOLONGO";"12";"USERA";"439998";"4469285";"40.37198635690731";"-3.7067765807244246";"";"";"";"/contenido/entidadesYorganismos/AuditoriosSalasConcierto"; 
2389;"Auditorio al aire libre. Parque del Calero";"";"";"Zona wifi Cafetería  El auditorio está abierto los días que hay programación cultural del Distrito, como Cine de Verano en julio, agosto y parte de septiembre, Clásicos a la Fresca en el mes de junio, Festival Joven en octubre... Éstas y otras actividades que puedan programarse siempre se publicitan. La cafetería abre durante el Cine de Verano.";"Metro: Quintana (línea 5), Barrio de la Concepción (línea 7).  Bus: 21, 146, 48.  Bicimad: Estación 229 (calle José del Hierro, 5).";"Mantenimiento: Dependiente de la Junta Municipal de Distrito de Ciudad Lineal.";"1";"http://www.madrid.es/sites/v/index.jsp?vgnextchannel=bfa48ab43d6bb410VgnVCM100000171f5a0aRCRD&vgnextoid=c6237b503a71c010VgnVCM1000000b205a0aRCRD";"JOSE DEL HIERRO";"CALLE";"V";"3";"";"";"";"";"MADRID";"MADRID";"28027";"4";"LA CONCEPCION";"15";"CIUDAD LINEAL";"444836";"4476387";"40.436300129244366";"-3.65040832835415";"917 654 317";"";"cultuclineal@madrid.es";"/contenido/entidadesYorganismos/AuditoriosSalasConcierto"; 
2388;"Auditorio al aire libre. Parque Enrique Tierno Galván";"Su mantenimiento es competencia de la Junta de Distrito de Arganzuela.  Actividades: espectáculos variados durante los meses de verano.";"";"";"Metro: Arganzuela-Planetario (línea 6).  Bus: 148, 156.";"";"1";"http://www.madrid.es/sites/v/index.jsp?vgnextchannel=bfa48ab43d6bb410VgnVCM100000171f5a0aRCRD&vgnextoid=26937b503a71c010VgnVCM1000000b205a0aRCRD";"PLANETARIO";"AVENIDA";"V";"18";"";"";"";"";"MADRID";"MADRID";"28045";"4";"LEGAZPI";"2";"ARGANZUELA";"441830";"4471375";"40.390944081814816";"-3.685391155439898";"";"";"";"/contenido/entidadesYorganismos/AuditoriosSalasConcierto"; 
6622049;"Auditorio al aire libre. Parque Lineal del Manzanares";"Su mantenimiento es competencia de Medio Ambiente (Parques y Jardines).   Actividades: espectáculos variados durante los meses de verano.";"";"";"Metro: Hospital 12 de Octubre (línea 3).  Bus: 123, 23, 78.  Cercanías Renfe: Doce de Octubre (línea C5).";"";"1";"http://www.madrid.es/sites/v/index.jsp?vgnextchannel=bfa48ab43d6bb410VgnVCM100000171f5a0aRCRD&vgnextoid=6fb3296aa2c9a310VgnVCM2000000c205a0aRCRD";"PERALES";"CAMINO";"V";"1";"";"";"";"";"MADRID";"MADRID";"28026";"4";"ALMENDRALES";"12";"USERA";"440997";"4470593";"40.3838473693563";"-3.695126033420815";"";"";"";"/contenido/entidadesYorganismos/AuditoriosSalasConcierto"; 
52510;"Auditorio al aire libre. Pavones";"Su mantenimiento es competencia de la Junta de Distrito de Moratalaz.  Actividades: espectáculos variados durante los meses de verano.";"";"";"Metro: Pavones (línea 9).  Bus: 71, 100, 140, 142, 144, E4, 30, 20.  Bicimad: Estación 221 (calle Hacienda de Pavones, 342).";"";"1";"http://www.madrid.es/sites/v/index.jsp?vgnextchannel=bfa48ab43d6bb410VgnVCM100000171f5a0aRCRD&vgnextoid=3845946be351c010VgnVCM2000000c205a0aRCRD";"HACIENDA DE PAVONES";"CALLE";"V";"209";"";"";"";"";"MADRID";"MADRID";"28030";"6";"VINATEROS";"14";"MORATALAZ";"445938";"4472508";"40.40142998557316";"-3.6370844112676117";"";"";"";"/contenido/entidadesYorganismos/AuditoriosSalasConcierto"; 
2397;"Auditorio al aire libre. Pilar García Peña (Parque Pinar del Rey)";"Su mantenimiento es competencia de la Junta de Distrito de Hortaleza.  Actividades: espectáculos variados durante los meses de verano.";"";"";"Bus: 73, 72, 9.";"";"1";"http://www.madrid.es/sites/v/index.jsp?vgnextchannel=bfa48ab43d6bb410VgnVCM100000171f5a0aRCRD&vgnextoid=b8a37b503a71c010VgnVCM1000000b205a0aRCRD";"CANILLAS";"CARRETERA";"V";"1";"";"";"";"";"MADRID";"MADRID";"28043";"3";"CANILLAS";"16";"HORTALEZA";"444354";"4479394";"40.46335596968574";"-3.65636755952747";"";"";"";"/contenido/entidadesYorganismos/AuditoriosSalasConcierto"; 
52515;"Auditorio al aire libre. Plaza de Ermua";"Su mantenimiento es competencia de Medioambiente (Parques y Jardines).  Actividades: espectáculos variados durante los meses de verano.";"";"";"Bus: 6, 60";"";"1";"http://www.madrid.es/sites/v/index.jsp?vgnextchannel=bfa48ab43d6bb410VgnVCM100000171f5a0aRCRD&vgnextoid=c8b5946be351c010VgnVCM2000000c205a0aRCRD";"GUETARIA";"CALLE";"V";"56";"";"";"";"";"MADRID";"MADRID";"28041";"1";"ORCASITAS";"12";"USERA";"439227";"4469272";"40.37181825097326";"-3.7158569969901873";"";"";"";"/contenido/entidadesYorganismos/AuditoriosSalasConcierto"; 
5451510;"Auditorio al aire libre. Templete de Música - Parque del Oeste";"Su mantenimiento es competencia de la Junta de Distrito de Moncloa-Aravaca.  Actividades: espectáculos variados durante los meses de verano.";"";"";"Metro: Príncipe Pío (Líneas 6, 10 y Ramal) y Plaza de España (líneas 3 y 10).  Bus: 62, 74.  Cercanías RENFE: Príncipe Pío (Líneas C1, C7, C10 y Regional).  Bicimad: Estación 115 (calle Evaristo San Miguel, 2).";"";"0";"http://www.madrid.es/sites/v/index.jsp?vgnextchannel=bfa48ab43d6bb410VgnVCM100000171f5a0aRCRD&vgnextoid=a1bebc3dfb094210VgnVCM2000000c205a0aRCRD";"PROFESOR MARTIN ALMAGRO BASCH";"CALLE";"V";"5";"";"";"";"";"MADRID";"MADRID";"28008";"1";"CASA DE CAMPO";"9";"MONCLOA-ARAVACA";"438980";"4475117";"40.42445303625764";"-3.719321112141923";"915 885 809";"";"cultumoncloa@madrid.es";"/contenido/entidadesYorganismos/AuditoriosSalasConcierto"; 
5989871;"Auditorio Carmen Laforet (Ciudad Lineal)";"Ubicado en el Centro de Mayores Carmen Laforet";"De lunes a sábado, de 9 a 21 horas.";"Aforo: 190 personas Zona wifi";"Metro: Pinar de Chamartín (líneas 1, 4 y línea 1 metro ligero)  Bus: 29, 125, 129, 150";"";"1";"http://www.madrid.es/sites/v/index.jsp?vgnextchannel=bfa48ab43d6bb410VgnVCM100000171f5a0aRCRD&vgnextoid=fca22248514ae210VgnVCM1000000b205a0aRCRD";"JAZMIN";"CALLE";"V";"46";"";"";"";"";"MADRID";"MADRID";"28033";"9";"COSTILLARES";"15";"CIUDAD LINEAL";"443573";"4481211";"40.47967249471556";"-3.6657243894913565";"913 831 456";"";"cscsiena@madrid.es";"/contenido/entidadesYorganismos/AuditoriosSalasConcierto"; 
52513;"Auditorio de la Plaza de Chamberí - Templete";"Su mantenimiento es competencia de la Junta Municipal de Chamberí.  Actividades: espectáculos variados durante todo el año.";"";"";"Metro: Iglesia (línea 1).  Bus: 147, 40, 3.  Bicimad: Estación 124 (calle Manuel Silvela, 20).  Aparcamiento: Olavide (52), plaza de Olavide.";"";"1";"http://www.madrid.es/sites/v/index.jsp?vgnextchannel=bfa48ab43d6bb410VgnVCM100000171f5a0aRCRD&vgnextoid=36a5946be351c010VgnVCM2000000c205a0aRCRD";"PLAZA DE CHAMBERI";"TEMPLETE";"T";"";"";"";"";"";"MADRID";"MADRID";"";"";"";"";"DISTRITO";"440877";"4476025";"40.43277092586933";"-3.6970484720506938";"";"";"";"/contenido/entidadesYorganismos/AuditoriosSalasConcierto"; 
11832607;"Auditorio Joaquín Rosado (Moncloa-Aravaca)";"";"";"Aforo: 280 personas. Zona wifi.";"Bus: 41, 75";"";"1,6";"http://www.madrid.es/sites/v/index.jsp?vgnextchannel=bfa48ab43d6bb410VgnVCM100000171f5a0aRCRD&vgnextoid=66615b2575814810VgnVCM1000001d4a900aRCRD";"SANTA POLA";"CALLE";"V";"22";"";"";"";"";"MADRID";"MADRID";"28008";"1";"CASA DE CAMPO";"9";"MONCLOA-ARAVACA";"437516";"4475994";"40.432243310641894";"-3.7366613378902462";"915 487 772";"";"ccadiaz@madrid.es";"/contenido/entidadesYorganismos/AuditoriosSalasConcierto"; 
10631882;"Auditorio Municipal al aire libre Lola Camarena";"Su mantenimiento es competencia de la Junta de Distrito de Villa de Vallecas.   Actividades: espectáculos variados durante todo el año.";"";"";"Metro: La Gavia (línea 1).  Bus: 145.";"";"1";"http://www.madrid.es/sites/v/index.jsp?vgnextchannel=bfa48ab43d6bb410VgnVCM100000171f5a0aRCRD&vgnextoid=0dabd0b2571d1610VgnVCM1000001d4a900aRCRD";"LA GAVIA";"AVENIDA";"V";"13";"";"";"";"";"MADRID";"MADRID";"28051";"3";"ENSANCHE DE VALLECAS";"18";"VILLA DE VALLECAS";"448205";"4469500";"40.37447621683769";"-3.6101291550314283";"";"";"cultuvivallecas@madrid.es";"/contenido/entidadesYorganismos/AuditoriosSalasConcierto"; 
161051;"Auditorio Municipal el Espinillo";"";"";"2 pistas de balonmano";"Bus: 22 , 59 , 85 , 79 , 123";"";"1";"http://www.madrid.es/sites/v/index.jsp?vgnextchannel=bfa48ab43d6bb410VgnVCM100000171f5a0aRCRD&vgnextoid=b6a9ba61e681c010VgnVCM1000000b205a0aRCRD";"TERTULIA";"CALLE";"V";"5";"";"";"";"";"MADRID";"MADRID";"28041";"4";"LOS ROSALES";"17";"VILLAVERDE";"441288";"4468354";"40.36180966975026";"-3.6927748531714824";"";"";"";"/contenido/entidadesYorganismos/AuditoriosSalasConcierto"; 
7034889;"Auditorio Municipal Las Trece Rosas";"Su mantenimiento es competencia de la Junta de Distrito de Villa de Vallecas.   Actividades: espectáculos variados durante todo el año.";"";"";"Metro: Villa de Vallecas (línea 1).  Bus: 54, 58, 103, 142, 143.  Cercanías Renfe: Vallecas (líneas C2, C7 y Regional).";"";"1";"http://www.madrid.es/sites/v/index.jsp?vgnextchannel=bfa48ab43d6bb410VgnVCM100000171f5a0aRCRD&vgnextoid=d8c31bbad23cf310VgnVCM1000000b205a0aRCRD";"MONTE DE MONTJUICH";"CALLE";"V";"7";"";"";"";"acceso por calle Sierra Gorda con vuelta a Sierra del Torcal";"MADRID";"MADRID";"28031";"2";"CASCO H.VALLECAS";"18";"VILLA DE VALLECAS";"447581";"4470145";"40.38024953878224";"-3.6175290483217055";"";"";"";"/contenido/entidadesYorganismos/AuditoriosSalasConcierto"; 
2130;"Auditorio Nacional de Música";"Organismo dependiente del Instituto Nacional de las Artes Escénicas y de la Música (Ministerio de Cultura y Deporte). Obra del arquitecto José María García de Paredes, fue inaugurado el 21 de octubre de 1988 y su construcción fue programada dentro del Plan Nacional de Auditorios, destinado a dotar al país de una adecuada infraestructura musical.";"";"";"Metro: Cruz del Rayo (línea 9),  Prosperidad (línea 4).  Bus: 29, 52, 1.  Bicimad: Estaciones 146 (calle Marían Francisca, 1), 147 (avenida del Doctor Arce, 45), 196 (calle Suero de Quiñones, 2).  Aparcamiento: Museo de la Ciudad (51) calle Príncipe de Vergara, 152.";"";"1,6";"http://www.madrid.es/sites/v/index.jsp?vgnextchannel=bfa48ab43d6bb410VgnVCM100000171f5a0aRCRD&vgnextoid=c4a4eb6fbd71c010VgnVCM1000000b205a0aRCRD";"PRINCIPE DE VERGARA";"CALLE";"V";"146";"";"";"";"";"MADRID";"MADRID";"28002";"3";"CIUDAD JARDIN";"5";"CHAMARTIN";"442619";"4477707";"40.44615938706209";"-3.6779448874160314";"913 370 139 / 913 370 140";"";"auditorio.nacional@inaem.cultura.gob.es";"/contenido/entidadesYorganismos/AuditoriosSalasConcierto"; 
10290812;"Auditorio Parque de la Cuña Verde de Vicálvaro";"";"";"";"Bus: 4, E3, E5";"";"1";"http://www.madrid.es/sites/v/index.jsp?vgnextchannel=bfa48ab43d6bb410VgnVCM100000171f5a0aRCRD&vgnextoid=1dbca0701d0da510VgnVCM1000001d4a900aRCRD";"CASALARREINA";"CALLE";"V";"26";"";"";"";"";"MADRID";"MADRID";"28032";"1";"CASCO H.VICALVARO";"19";"VICALVARO";"447938";"4473364";"40.4092735487853";"-3.613582880111065";"";"";"";"/contenido/entidadesYorganismos/AuditoriosSalasConcierto"; 
7397298;"Café Berlín";"";"";"";"Metro: Ópera (líneas 2, 5 y Ramal), Callao (líneas 3 y 5).  Bus: 75, 147, 146, 148, 44, 133, 001, 1, 2, 3, 46, 74.  Bicimad: Estaciones 23 (plaza de Santo Domingo, 1), 22 (calle Jacometrezo, 3).  Aparcamientos: Descalzas (20), plaza Descalzas y plaza San Martín; el Corte Inglés Callao (92), plaza de Callao.";"";"3";"http://www.madrid.es/sites/v/index.jsp?vgnextchannel=bfa48ab43d6bb410VgnVCM100000171f5a0aRCRD&vgnextoid=df5ec0b5d45d4410VgnVCM1000000b205a0aRCRD";"ANGELES";"COSTANILLA";"V";"20";"";"";"";"";"MADRID";"MADRID";"28013";"6";"SOL";"1";"CENTRO";"439941";"4474569";"40.41958857138475";"-3.7079430927433954";"915 215 752";"";"";"/contenido/entidadesYorganismos/AuditoriosSalasConcierto"; 
5304610;"Café Central";"";"";"Estilos: Jazz.";"Metro: Antón Martín (línea 1), Sol (líneas 1, 2 y 3).  Bus: 002, M1, SE712, 26, 32, 6, 65.  Cercanías Renfe: Sol (líneas C3, C4 y Regional).  Bicimad: Estaciones 34 (Plaza Jacinto Benavente), 52 (Plaza Santa Ana, 10).  Aparcamiento: Plaza de Santa Ana (77), plaza Jacinto Benavente (15).";"";"3";"http://www.madrid.es/sites/v/index.jsp?vgnextchannel=bfa48ab43d6bb410VgnVCM100000171f5a0aRCRD&vgnextoid=d3611cbd662c0210VgnVCM2000000c205a0aRCRD";"ANGEL";"PLAZA";"V";"10";"";"";"";"";"MADRID";"MADRID";"28012";"3";"CORTES";"1";"CENTRO";"440450";"4473965";"40.414178504157086";"-3.701904023779484";"913 694 143";"";"";"/contenido/entidadesYorganismos/AuditoriosSalasConcierto"; 
7035060;"Café La Palma";"";"";"Estilos: Canción de autor, Eléctrica, HipHop, House, Indie, Reggae, Rock.";"Metro: Noviciado (línea 2), San Bernardo (líneas 2 y 4), Ventura Rodríguez (línea 3).  Bus: 002, 147, 3.  Bicimad: Estación 15 (calle San Vicente Ferrer, 64).";"";"3";"http://www.madrid.es/sites/v/index.jsp?vgnextchannel=bfa48ab43d6bb410VgnVCM100000171f5a0aRCRD&vgnextoid=2000aa5a863cf310VgnVCM1000000b205a0aRCRD";"PALMA";"CALLE";"V";"62";"";"";"";"";"MADRID";"MADRID";"28015";"5";"UNIVERSIDAD";"1";"CENTRO";"439936";"4475369";"40.42678043394236";"-3.708094409489715";"915 225 031";"";"";"/contenido/entidadesYorganismos/AuditoriosSalasConcierto"; 
52511;"Centro Cultural Auditorio Parque El Paraíso (San Blas - Canillejas)";"";"";"";"Metro: Simancas (línea 7).  Bus: 109, 38.";"";"1";"http://www.madrid.es/sites/v/index.jsp?vgnextchannel=bfa48ab43d6bb410VgnVCM100000171f5a0aRCRD&vgnextoid=a395946be351c010VgnVCM2000000c205a0aRCRD";"ARCENTALES";"AVENIDA";"V";"4";"";"";"";"";"MADRID";"MADRID";"28037";"2";"HELLIN";"20";"SAN BLAS-CANILLEJAS";"447225";"4475667";"40.42997621103139";"-3.6221773579444596";"915 888 065";"";"cultusanblas@madrid.es";"/contenido/entidadesYorganismos/AuditoriosSalasConcierto"; 
7582981;"Independance Club";"";"";"";"Metro: Estación del Arte (línea 1).  Bus: 26, 32, 6, 001, 10, 14, 27, 34, 37, 45, C03, E1.  Bicimad: Estaciones 67 (calle Almadén, 28), 81 (cuesta de Claudio Moyano), 50 (calle Santa Isabel, 57).  Aparcamiento: Sánchez Bustillo (37).  Cercanías Renfe: Atocha (líneas C1, C2, C3, C4, C4a, C4b, C5, C7, C10).";"";"3";"http://www.madrid.es/sites/v/index.jsp?vgnextchannel=bfa48ab43d6bb410VgnVCM100000171f5a0aRCRD&vgnextoid=faa5f49cf9847410VgnVCM2000000c205a0aRCRD";"ATOCHA";"CALLE";"V";"127";"";"";"";"";"MADRID";"MADRID";"28012";"3";"CORTES";"1";"CENTRO";"441210";"4473454";"40.409630697339814";"-3.6928774759221272";"683 516 474";"";"";"/contenido/entidadesYorganismos/AuditoriosSalasConcierto"; 
3936;"La Sala Live";"";"";"Estilos: Funk, Heavy Metal, Indie, Pop, Rock.";"Metro: Eugenia de Montijo (línea 5).  Bus: 17, 35.";"";"3";"http://www.madrid.es/sites/v/index.jsp?vgnextchannel=bfa48ab43d6bb410VgnVCM100000171f5a0aRCRD&vgnextoid=71b21e79ee71c010VgnVCM1000000b205a0aRCRD";"NUESTRA SEÑORA DE FATIMA";"AVENIDA";"V";"42";"";"";"";"";"MADRID";"MADRID";"28047";"4";"VISTA ALEGRE";"11";"CARABANCHEL";"436558";"4470591";"40.38348754068021";"-3.7474375780696736";"915 255 444";"";"";"/contenido/entidadesYorganismos/AuditoriosSalasConcierto"; 
11519883;"Pabellón de Convenciones (Recinto Ferial Casa de Campo)";"En el Recinto Ferial de la Casa de Campo y junto al Parque Madrid Río se encuentra el Pabellón de Convenciones, el mejor escenario para acoger ferias, salones profesionales, exposiciones, reuniones y presentaciones de producto. Situado en la entrada más occidental del recinto, este edificio gestionado por la empresa municipal Madrid Destino dispone de 2.886 metros cuadrados de superficie útil, distribuidos en una planta baja y una planta alta. Los arquitectos Jaime Ruiz y Francisco Cabrero diseñaron el Pabellón de Convenciones, que fue construido en 1953.  Durante los años 2019 y 2020, se llevaron a cabo las obras de rehabilitación estructural del edificio y reconstrucción de la Marquesina de la entrada principal. También se realizaron actuaciones de acondicionamiento y de renovación de sus instalaciones principales.";"";"";"Metro: Lago (línea 10), Alto de Extremadura (línea 6).  Bus: 31, 33, 36, 39, 65.  Aparcamiento: Avenida de Portugal (7). Frente al número 51.";"";"1";"http://www.madrid.es/sites/v/index.jsp?vgnextchannel=bfa48ab43d6bb410VgnVCM100000171f5a0aRCRD&vgnextoid=dfd722307a31d710VgnVCM1000001d4a900aRCRD";"PORTUGAL";"AVENIDA";"V";"";"";"";"";"";"MADRID";"MADRID";"28011";"1";"CASA DE CAMPO";"9";"MONCLOA-ARAVACA";"437456";"4474126";"40.4117160112298";"-3.7400898422689233";"915 787 758";"";"";"/contenido/entidadesYorganismos/AuditoriosSalasConcierto"; 
2390;"Pabellón Multiusos Madrid Arena (Recinto Ferial Casa de Campo)";"Recinto de gran espectacularidad, apropiado para desarrollar ferias, actos deportivos, corporativos o espectáculos. Es un lugar de encuentro para desarrollar grandes eventos. De planta circular y coronado por una imponente cúpula, es extremadamente versátil en cuanto a circulaciones y usos. Se distribuye en tres plantas conectadas entre sí, y está unido a través de un túnel con el Pabellón de Cristal y también con el Pabellón Satélite Madrid Arena, multiplicando así sus posibilidades. Tiene graderíos retráctiles, lo que permite una gran adaptabilidad a todas las necesidades.";"";"Dispone de vestuarios y camerinos, cafetería, barras y amplias zonas de carga y descarga, con acceso de camiones hasta la pista principal. El aforo está sujeto a la implantación del montaje a realizar.";"Metro: Lago (línea 10), Puerta del Ángel (línea 6).  Bus: 31, 33, 36, 39, 65.  Aparcamiento: Avenida de Portugal (7). Frente al número 51.";"";"1";"http://www.madrid.es/sites/v/index.jsp?vgnextchannel=bfa48ab43d6bb410VgnVCM100000171f5a0aRCRD&vgnextoid=c53179262ef5d010VgnVCM1000000b205a0aRCRD";"PRINCIPAL";"AVENIDA";"V";"14";"";"";"";"";"MADRID";"MADRID";"28011";"1";"CASA DE CAMPO";"9";"MONCLOA-ARAVACA";"437456";"4474126";"40.41352730435772";"-3.7384704159174076";"915 787 758";"";"";"/contenido/entidadesYorganismos/AuditoriosSalasConcierto"; 
5452036;"Quiosco de Música Templete Cantaor José Menese";"Su mantenimiento es competencia de la Junta de Distrito de Latina.  Actividades : espectáculos variados durante los meses de verano.";"";"";"Metro de Madrid. Línea 6. Estación: Puerta del Ángel. Autobuses EMT. Líneas 25, 31, 33, 36, 39, 65 y 138.";"";"1";"http://www.madrid.es/sites/v/index.jsp?vgnextchannel=bfa48ab43d6bb410VgnVCM100000171f5a0aRCRD&vgnextoid=b6013e3860594210VgnVCM2000000c205a0aRCRD";"HUARTE DE SAN JUAN";"PLAZA";"V";"1";"";"";"";"";"MADRID";"MADRID";"28011";"2";"PUERTA DEL ANGEL";"10";"LATINA";"438428";"4473844";"40.412941426753434";"-3.725711256326908";"";"";"";"/contenido/entidadesYorganismos/AuditoriosSalasConcierto"; 
10187391;"Sala Barracudas";"";"";"Estilos: Blues, Indie, Pop, Rock.";"Metro: Parque de las Avenidas (línea 7).  Bus: 48, 43, 53, 74.  Bicimad: Estaciones 240 (avenida de Brasilia, 9), 242 (avenida Bruselas, 56).";"";"3";"http://www.madrid.es/sites/v/index.jsp?vgnextchannel=bfa48ab43d6bb410VgnVCM100000171f5a0aRCRD&vgnextoid=c89d12e1c4d48510VgnVCM2000001f4a900aRCRD";"BRESCIA";"CALLE";"V";"19";"";"";"";"";"MADRID";"MADRID";"28028";"4";"GUINDALERA";"4";"SALAMANCA";"443825";"4476441";"40.43672107982399";"-3.662331952698921";"693 757 061";"";"";"/contenido/entidadesYorganismos/AuditoriosSalasConcierto"; 
6907373;"Sala Beer Station";"";"";"Estilos: Canción de autor, Comedia, Humor.";"Metro: Santo Domingo (línea 2), Callao (líneas 3 y 5).  Bus: 75, 44, 146, 147, 133, 148, 001, 1, 2, 3, 46, 74.  Bicimad: Estaciones 23 (plaza de Santo Domingo, 1), 22 (calle Jacometrezo, 3).  Aparcamientos: Descalzas (20) plaza Descalzas y plaza San Martín; Isabel la Católica (98) calle Isabel la Católica; el Corte Inglés Callao (92), plaza de Callao.";"";"3";"http://www.madrid.es/sites/v/index.jsp?vgnextchannel=bfa48ab43d6bb410VgnVCM100000171f5a0aRCRD&vgnextoid=d6c706172d21e310VgnVCM1000000b205a0aRCRD";"SANTO DOMINGO";"CUESTA";"V";"22";"";"";"";"";"MADRID";"MADRID";"28013";"1";"PALACIO";"1";"CENTRO";"439897";"4474584";"40.41971799907849";"-3.7084630982794464";"915 472 748";"";"";"/contenido/entidadesYorganismos/AuditoriosSalasConcierto"; 
4072;"Sala Big Mama Ballroom";"";"";"Estilos: Jazz, Swing.";"Metro: Embajadores (líneas 3 y 5), Palos de la Frontera (línea 3).  Bus: 148, 60, 78, 119, 34, 36, 41, C03, C2, C1.  Cercanías Renfe: Embajadores (línea C5)  Bicimad: Estaciones 47 (glorieta Embajadores, 6), 48 (glorieta de Embajadores, 2), 49 (Ronda de Atocha, 34), 121 (Santa María de la Cabeza, 58).";"";"3";"http://www.madrid.es/sites/v/index.jsp?vgnextchannel=bfa48ab43d6bb410VgnVCM100000171f5a0aRCRD&vgnextoid=fb6d7b503a71c010VgnVCM1000000b205a0aRCRD";"BERNARDINO OBREGON";"CALLE";"V";"3";"";"";"";"";"MADRID";"MADRID";"28012";"6";"PALOS DE MOGUER";"2";"ARGANZUELA";"440603";"4472862";"40.404252851320074";"-3.6999784000568807";"917 648 018";"";"";"/contenido/entidadesYorganismos/AuditoriosSalasConcierto"; 
71529;"Sala Bule Bule";"";"";"";"Metro: Banco de España (línea 2).  Bus: 001, 002, 1, 146, 2, 3, 46, 74, 9, 15, 150, 20, 5, 51, 53, 52.  Bicimad: Estaciones 20a (calle Falcalá, 49), 28 (calle Alcalá, 27).  Aparcamiento: Plaza del Rey (54).";"";"3";"http://www.madrid.es/sites/v/index.jsp?vgnextchannel=bfa48ab43d6bb410VgnVCM100000171f5a0aRCRD&vgnextoid=66065cee4051c010VgnVCM2000000c205a0aRCRD";"MARQUES DE VALDEIGLESIAS";"CALLE";"V";"6";"";"";"";"";"MADRID";"MADRID";"28004";"4";"JUSTICIA";"1";"CENTRO";"440864";"4474567";"40.41963173758756";"-3.6970581797174273";"914 380 553";"";"";"/contenido/entidadesYorganismos/AuditoriosSalasConcierto"; 
5870929;"Sala Búho Real";"";"";"Estilos: Canción de autor, Músicas del mundo, Pop, Rock.";"Metro: Chueca (línea 5), Alonso Martínez (líneas 4, 5 y 10).  Bus: 37, 3.  Bicimad: Estaciones 7 (calle Hortaleza, 75), 6 (calle Hortaleza, 63), 26 (plaza de las Salesas, 7).  Cercanías Renfe: Recoletos (líneas C1, C2, C7, C10 y Regional).  Aparcamientos: Gravina 21 (89), calle Gravina; garaje Piamonte (96), Villa de París (67), plaza Villa de París.";"";"3";"http://www.madrid.es/sites/v/index.jsp?vgnextchannel=bfa48ab43d6bb410VgnVCM100000171f5a0aRCRD&vgnextoid=874a3a351236c210VgnVCM2000000c205a0aRCRD";"GENERAL MARTINEZ CAMPOS";"PASEO";"V";"14";"";"";"";"";"MADRID";"MADRID";"28010";"4";"ALMAGRO";"7";"CHAMBERI";"440899";"4476259";"40.434877495729964";"-3.696810843113834";"";"";"";"/contenido/entidadesYorganismos/AuditoriosSalasConcierto"; 
7397202;"Sala Cadavra Club";"";"";"Estilos: Indie, Pop, PopRock, Rock.";"Metro: Gran Vía (líneas 1 y 5), Sevilla (línea 2), Sol (líneas 1, 2 y 3).  Bus: 001, 1, 146, 2, 3, 46, 74, 002, 52.  Bicimad: Estaciones 210 (calle Tres Cruces, 7), 211 (calle Desengaño, 1), 18 (plaza de Pedro Zerolo, 1).  Cercanías Renfe:  Sol (líneas C3, C4, C4a, C4b y Regional).    Aparcamiento: Pedro Zerolo (71), plaza Pedro Zerolo; Barco 1 (88), calle Barco; plaza del Carmen (8), Sevilla (41), calle Sevilla y calle Alcalá; Hub de Movilidad Canalejas 360 (1239) calle Alcalá, 17).";"";"3";"http://www.madrid.es/sites/v/index.jsp?vgnextchannel=bfa48ab43d6bb410VgnVCM100000171f5a0aRCRD&vgnextoid=bfce2572f35d4410VgnVCM1000000b205a0aRCRD";"CABALLERO DE GRACIA";"CALLE";"V";"10";"";"";"";"";"MADRID";"MADRID";"28013";"6";"SOL";"1";"CENTRO";"440547";"4474548";"40.41944182044671";"-3.700799788807606";"915 221 815";"";"";"/contenido/entidadesYorganismos/AuditoriosSalasConcierto"; 
11014228;"Sala Cadillac Solitario";"";"";"Estilos: Indie, Pop, Rock.";"Metro: Herrera Oria (línea 9).  Bus: 67, 83, 133, 124, 175, 178.  Cercaníias Renfe: Ramón y Cajal (líneas C3a, C7, C8 y Regional).";"";"3";"http://www.madrid.es/sites/v/index.jsp?vgnextchannel=bfa48ab43d6bb410VgnVCM100000171f5a0aRCRD&vgnextoid=bfa5553c74a1d610VgnVCM2000001f4a900aRCRD";"FERMIN CABALLERO";"CALLE";"V";"6";"";"";"";"";"MADRID";"MADRID";"28034";"5";"LA PAZ";"8";"FUENCARRAL-EL PARDO";"440725";"4482079";"40.48729435461303";"-3.699402329671547";"609 454 556";"";"";"/contenido/entidadesYorganismos/AuditoriosSalasConcierto"; 
5942340;"Sala Cardamomo";"";"";"Estilos: Flamenco, Jazz.";"Metro: Sevilla (línea 2), Antón Martín (línea 1), Sol (líneas 1, 2 y 3).  Bus: 002, M1, 51.  Cercanías Renfe: Sol (líneas C3, C, C4a, C4b y Regional).";"";"3";"http://www.madrid.es/sites/v/index.jsp?vgnextchannel=bfa48ab43d6bb410VgnVCM100000171f5a0aRCRD&vgnextoid=d2834ff84bbed210VgnVCM1000000b205a0aRCRD";"ECHEGARAY";"CALLE";"V";"15";"";"";"";"";"MADRID";"MADRID";"28014";"3";"CORTES";"1";"CENTRO";"440650";"4474106";"40.41546754063365";"-3.6995403937914704";"918 051 038";"";"";"/contenido/entidadesYorganismos/AuditoriosSalasConcierto"; 
11633752;"Sala Cien por Cien";"";"";"";"Metro: Alonso Cano (línea 7), Canal (líneas 2 y 7).  Bus: 12, 149, 3, 37.   Bicimad:  Estaciones 201 (calle José Abascal, 2), 129 (calle José Abascal, 33), 246 (calle Santa Engracia, 87).";"";"3";"http://www.madrid.es/sites/v/index.jsp?vgnextchannel=bfa48ab43d6bb410VgnVCM100000171f5a0aRCRD&vgnextoid=3388398ebdbaf710VgnVCM2000001f4a900aRCRD";"SANTISIMA TRINIDAD";"CALLE";"V";"30";"";"";"";"";"MADRID";"MADRID";"28010";"3";"TRAFALGAR";"7";"CHAMBERI";"440547";"4476590";"40.43783445654716";"-3.700994506227161";"910 291 254";"";"";"/contenido/entidadesYorganismos/AuditoriosSalasConcierto"; 
3891;"Sala Clamores";"";"";"Estilos: Blues, Flamenco, Funk, Indie, Jam Session, Jazz, Músicas del mundo.";"Metro: Bilbao (líneas 1 y 4), Quevedo (línea 2), Iglesia (línea 1).  Bus: 147, 37, 40, 149.  Bicimad: Estación 124 (calle manuel Silvela, 20).  Aparcamiento: Olavide (52), plaza de Olavide.";"";"3";"http://www.madrid.es/sites/v/index.jsp?vgnextchannel=bfa48ab43d6bb410VgnVCM100000171f5a0aRCRD&vgnextoid=bfa7b069a541f010VgnVCM1000000b205a0aRCRD";"ALBURQUERQUE";"CALLE";"V";"14";"";"";"";"";"MADRID";"MADRID";"28010";"3";"TRAFALGAR";"7";"CHAMBERI";"440546";"4475846";"40.431121286721805";"-3.7009483655353894";"";"";"914 455 480";"/contenido/entidadesYorganismos/AuditoriosSalasConcierto"; 
4919012;"Sala Contraclub";"";"";"";"Metro: La Latina (línea 5).  Bus: SE712  Bicimad: Estación 166 (calle Segovia, 26).";"";"3";"http://www.madrid.es/sites/v/index.jsp?vgnextchannel=bfa48ab43d6bb410VgnVCM100000171f5a0aRCRD&vgnextoid=cdd1e822e5a0a110VgnVCM2000000c205a0aRCRD";"BAILEN";"CALLE";"V";"16";"";"";"";"";"MADRID";"MADRID";"28005";"1";"PALACIO";"1";"CENTRO";"439426";"4473790";"40.41252819937501";"-3.7139441766173196";"";"";"";"/contenido/entidadesYorganismos/AuditoriosSalasConcierto"; 
11782806;"Sala El Despertar";"";"";"Estilos: Blues, Jazz.";"Metro: Antón Martín (línea 1), Lavapiés (línea 3).  Bus: 26, 32, 6, M1.  Bicimad: Estaciones 41 (calle Atocha, 54), 42 (calle Atocha, 95).";"";"3";"http://www.madrid.es/sites/v/index.jsp?vgnextchannel=bfa48ab43d6bb410VgnVCM100000171f5a0aRCRD&vgnextoid=cd89493f6b463810VgnVCM1000001d4a900aRCRD";"TORRECILLA DEL LEAL";"CALLE";"V";"18";"";"";"";"";"MADRID";"MADRID";"28012";"2";"EMBAJADORES";"1";"CENTRO";"440648";"4473593";"40.41084840172144";"-3.6995137751716403";"915 308 095";"";"";"/contenido/entidadesYorganismos/AuditoriosSalasConcierto"; 
11782876;"Sala El Intruso";"";"";"Estilos: Blues, funk, jazz, soul.";"Metro: Chueca (línea 5), Tribunal (líneas 1 y 10).  Bus: 3, 002.  Bicimad: Estaciones 55 (plaza de San Ildefonso), 6 (calle Hortaleza, 63), 58 (calle Augusto Figueroa, 33).  Aparcamientos: Aparcamiento Escuelas de San Antón (91), Santa Brigida; Mercado San Antón (94), Libertad; Pedro Zerolo (71), plaza Pedro Zerolo.";"";"3";"http://www.madrid.es/sites/v/index.jsp?vgnextchannel=bfa48ab43d6bb410VgnVCM100000171f5a0aRCRD&vgnextoid=356f493f6b463810VgnVCM1000001d4a900aRCRD";"AUGUSTO FIGUEROA";"CALLE";"V";"3";"";"";"";"";"MADRID";"MADRID";"28004";"4";"JUSTICIA";"1";"CENTRO";"440603";"4474946";"40.42302865076366";"-3.700179827881794";"";"";"";"/contenido/entidadesYorganismos/AuditoriosSalasConcierto"; 
11782954;"Sala El perro de la parte de atrás del coche";"";"";"";"Metro: Callao (líneas 3 y 5).  Bus: 002.  Bicimad: Estación 17 (plaza de Carlos Cambronero, 2).  Aparcamientos: Luna-Tudescos (14), plaza Santa María Soledad Torres Acosta con vuelta a calle Luna; Barco 1(88), calle Barco.";"";"3";"http://www.madrid.es/sites/v/index.jsp?vgnextchannel=bfa48ab43d6bb410VgnVCM100000171f5a0aRCRD&vgnextoid=f1f2493f6b463810VgnVCM1000001d4a900aRCRD";"PUEBLA";"CALLE";"V";"15";"";"";"";"";"MADRID";"MADRID";"28004";"5";"UNIVERSIDAD";"1";"CENTRO";"440288";"4474863";"40.4222576556999";"-3.703874418839117";"";"";"";"/contenido/entidadesYorganismos/AuditoriosSalasConcierto"; 
3917;"Sala El Sol";"";"";"Estilos: Todos los estilos.";"Metro: Gran Vía (línea 1 y 5), Sol (líneas 1, 2 y 3).  Bus: 001, 1, 146, 2, 3, 46, 74, 002.  Bicimad: Estación 210 (Tres Cruces, 7) / Estación 56 (plaza del Carmen, 1).  Cercanías Renfe: Sol (líneas C3, C4, C4a, C4b y Regional).  Aparcamiento: Plaza del Carmen (8).";"";"3";"http://www.madrid.es/sites/v/index.jsp?vgnextchannel=bfa48ab43d6bb410VgnVCM100000171f5a0aRCRD&vgnextoid=c20eff632081c010VgnVCM1000000b205a0aRCRD";"JARDINES";"CALLE";"V";"3";"";"";"";"";"MADRID";"MADRID";"28013";"6";"SOL";"1";"CENTRO";"440477";"4474497";"40.41896393620347";"-3.7016354977769943";"915 326 490";"";"";"/contenido/entidadesYorganismos/AuditoriosSalasConcierto"; 
11783007;"Sala El Sótano";"";"";"";"Metro: La Latina (línea 5).  Bus: M1, 002, 17, 18, 23, 35, 60  Bicimad: Estación 39 (plaza de la Cebada, 16).  Aparcamiento: Mercado de la Cebada (501), plaza de la Cebada.";"";"3";"http://www.madrid.es/sites/v/index.jsp?vgnextchannel=bfa48ab43d6bb410VgnVCM100000171f5a0aRCRD&vgnextoid=a9b4493f6b463810VgnVCM1000001d4a900aRCRD";"MALDONADAS";"CALLE";"V";"6";"";"";"";"";"MADRID";"MADRID";"28005";"2";"EMBAJADORES";"1";"CENTRO";"439945";"4473612";"40.410963258677214";"-3.707804845662597";"";"";"";"/contenido/entidadesYorganismos/AuditoriosSalasConcierto"; 
11783046;"Sala Elefante Blanco";"";"";"";"Metro: Pío XII (línea 9)  Bus: 150, 16, 29.";"";"3";"http://www.madrid.es/sites/v/index.jsp?vgnextchannel=bfa48ab43d6bb410VgnVCM100000171f5a0aRCRD&vgnextoid=a866493f6b463810VgnVCM1000001d4a900aRCRD";"SANTA HORTENSIA";"CALLE";"V";"14";"";"";"";"";"MADRID";"MADRID";"28002";"2";"PROSPERIDAD";"5";"CHAMARTIN";"443192";"4477384";"40.44516934861189";"-3.6698726835280313";"615 340 892";"";"";"/contenido/entidadesYorganismos/AuditoriosSalasConcierto"; 
11783180;"Sala Fotomatón";"";"";"Estilos: Electropop, Indie, IndiePop.";"Metro: Noviciado (línea 2), Plaza de España (líneas 3 y 10).  Bus: 002, 39, 25, 001, 1, 133, 2, 44, 147, 3, 148, 46, 74, 74, 138, C1.  Bicimad: Estación 116b (calle Princesa, 5).  Aparcamiento: Mostenses (50), plaza Mostenses y calle Ricardo León; plaza de España (53).";"";"3";"http://www.madrid.es/sites/v/index.jsp?vgnextchannel=bfa48ab43d6bb410VgnVCM100000171f5a0aRCRD&vgnextoid=344081c89d463810VgnVCM1000001d4a900aRCRD";"CONDE DE TORENO";"PLAZA";"V";"2";"";"";"";"";"MADRID";"MADRID";"28015";"5";"UNIVERSIDAD";"1";"CENTRO";"439811";"4475125";"40.42458980934571";"-3.709521523733107";"";"";"";"/contenido/entidadesYorganismos/AuditoriosSalasConcierto"; 
11783224;"Sala Fulanita de tal";"";"";"Estilos: Blues Canción de autor, Flamenco, Indie, Pop, Rock, Soul, Todos los estilos.";"Metro: Chueca (línea 5), Alonso Martínez (líneas 4, 5 y 10).  Bus: 37, 3.  Bicimad: Estaciones 7 (calle Hortaleza, 75), 6 (calle Hortaleza, 63), 26 (plaza de las Salesas, 7).  Cercanías Renfe: Recoletos (líneas C1, C2, C7, C10 y Regional).  Aparcamientos: Gravina 21 (89), calle Gravina; garaje Piamonte (96), Villa de París (67), plaza Villa de París.";"";"3";"http://www.madrid.es/sites/v/index.jsp?vgnextchannel=bfa48ab43d6bb410VgnVCM100000171f5a0aRCRD&vgnextoid=eee381c89d463810VgnVCM1000001d4a900aRCRD";"REGUEROS";"CALLE";"V";"9";"";"";"";"";"MADRID";"MADRID";"28004";"4";"JUSTICIA";"1";"CENTRO";"440920";"4475127";"40.42468328465713";"-3.696460198357803";"661 724 191";"";"";"/contenido/entidadesYorganismos/AuditoriosSalasConcierto"; 
11783244;"Sala Fun House";"";"";"Estilos: Jazz, Rock, Soul.";"Metro: Bilbao (líneas 1 y 4), Quevedo (línea 2), Iglesia (línea 1).  Bus: 147, 37, 40, 149.  Bicimad: Estación 124 (calle manuel Silvela, 20).  Aparcamientos: Olavide (52), plaza de Olavide, Fuencarral (27), calle Fuencarral entre 111 y 121.";"";"3";"http://www.madrid.es/sites/v/index.jsp?vgnextchannel=bfa48ab43d6bb410VgnVCM100000171f5a0aRCRD&vgnextoid=da4581c89d463810VgnVCM1000001d4a900aRCRD";"PALAFOX";"CALLE";"V";"8";"";"";"";"";"MADRID";"MADRID";"28010";"3";"TRAFALGAR";"7";"CHAMBERI";"440524";"4475870";"40.43134824139681";"-3.701186635650276";"";"";"910 176 619";"/contenido/entidadesYorganismos/AuditoriosSalasConcierto"; 
4676603;"Sala Galileo Galilei";"";"";"Estilos: Canción de autor, Músicas del mundo, PopRock.";"Metro: Islas Filipinas (línea 7), Canal (líneas 2 y 7).  Bus: 12, 2.  Bicimad: Estación 245 (calle Galileo, 63).";"";"3";"http://www.madrid.es/sites/v/index.jsp?vgnextchannel=bfa48ab43d6bb410VgnVCM100000171f5a0aRCRD&vgnextoid=b0aea3fc6abe5110VgnVCM1000000b205a0aRCRD";"GALILEO";"CALLE";"V";"100";"";"";"";"";"MADRID";"MADRID";"28015";"2";"ARAPILES";"7";"CHAMBERI";"439798";"4476674";"40.438535474658956";"-3.709844851840886";"915 347 557";"";"";"/contenido/entidadesYorganismos/AuditoriosSalasConcierto"; 
7035148;"Sala Gruta 77";"";"";"Estilos: Garage, Punk, Reggae, Rock, Rockabilly, Ska, Surf.";"Metro: Oporto (líneas 5 y 6).  Bus: 118, 34, 35, 119, 55.";"";"3";"http://www.madrid.es/sites/v/index.jsp?vgnextchannel=bfa48ab43d6bb410VgnVCM100000171f5a0aRCRD&vgnextoid=2782ac07d83cf310VgnVCM1000000b205a0aRCRD";"CUCLILLO";"CALLE";"V";"6";"";"";"";"";"MADRID";"MADRID";"28019";"3";"SAN ISIDRO";"11";"CARABANCHEL";"437924";"4471401";"40.390941489181294";"-3.7314016068733746";"914 712 370";"";"";"/contenido/entidadesYorganismos/AuditoriosSalasConcierto"; 
11783250;"Sala Hangar 48";"";"";"Estilos: Disco, House, Música negra, Otros, PopRock, Rock, Techno.";"Metro: La Latina (línea 5).  Bus: 148, 3, SE712, 60.  Bicimad: Estación 37 (plaza de San Francisco, 5).";"";"3";"http://www.madrid.es/sites/v/index.jsp?vgnextchannel=bfa48ab43d6bb410VgnVCM100000171f5a0aRCRD&vgnextoid=cf7681c89d463810VgnVCM1000001d4a900aRCRD";"BAILEN";"CALLE";"V";"24";"";"";"";"";"MADRID";"MADRID";"28005";"1";"PALACIO";"1";"CENTRO";"439414";"4473662";"40.411376122865256";"-3.714064363467543";"658 144 385";"";"";"/contenido/entidadesYorganismos/AuditoriosSalasConcierto"; 
11783707;"Sala Honky Tonk";"";"";"";"Metro: Alonso Martínez (líneas 4, 5 y 10), Bilbao (líneas 1 y 4).  Bus: 3, 147, 37, 40.   Bicimad:  Estaciones 124 (calle Manuel Silvela, 20), 122 (calle Santa Engracia, 14).";"";"3";"http://www.madrid.es/sites/v/index.jsp?vgnextchannel=bfa48ab43d6bb410VgnVCM100000171f5a0aRCRD&vgnextoid=3364fd7266963810VgnVCM1000001d4a900aRCRD";"COVARRUBIAS";"CALLE";"V";"24";"";"";"";"";"MADRID";"MADRID";"28010";"3";"TRAFALGAR";"7";"CHAMBERI";"440823";"4475743";"40.430222687472515";"-3.6976519453785786";"914 456 191";"";"";"/contenido/entidadesYorganismos/AuditoriosSalasConcierto"; 
11784432;"Sala Jazzville";"";"";"";"Metro: Conde de Casal (línea 6).  Bus: 143, 156, 56, 20, 30, 32, 14, 63.  Bicimad: Estaciones 82 (calle Doctor Esquerdo, 161), 73 (avenida de Nazaret, 7).";"";"3";"http://www.madrid.es/sites/v/index.jsp?vgnextchannel=bfa48ab43d6bb410VgnVCM100000171f5a0aRCRD&vgnextoid=173ef6f716773810VgnVCM2000001f4a900aRCRD";"JESUS APRENDIZ";"CALLE";"V";"19";"";"";"";"";"MADRID";"MADRID";"28007";"6";"NIÑO JESUS";"3";"RETIRO";"443061";"4473441";"40.40964834979396";"-3.6710672285180186";"";"";"";"/contenido/entidadesYorganismos/AuditoriosSalasConcierto"; 
11784434;"Sala Libertad 8";"";"";"Estilos: Canción de autor.";"Metro: Chueca (línea 5), Banco de España (línea 2).  Bus: 001, 1, 146, 2, 74, 002, 3, 46, 9, 15, 150, 20, 5, 53, 51, 52.  Bicimad: Estaciones 19 (calle Prim, 2), 18 (plaza de Pedro Zerolo, 1), 20a (calle Alcalá, 49)  Aparcamientos: Santa Brigida; Mercado San Antón (94), Libertad; Pedro Zerolo (71), plaza Pedro Zerolo; Plaza del Rey (54).";"";"3";"http://www.madrid.es/sites/v/index.jsp?vgnextchannel=bfa48ab43d6bb410VgnVCM100000171f5a0aRCRD&vgnextoid=fdcef6f716773810VgnVCM2000001f4a900aRCRD";"LIBERTAD";"CALLE";"V";"8";"";"";"";"";"MADRID";"MADRID";"28004";"4";"JUSTICIA";"1";"CENTRO";"440842";"4474685";"40.42069989726227";"-3.6973340734098006";"915 321 150";"";"";"/contenido/entidadesYorganismos/AuditoriosSalasConcierto"; 
11784436;"Sala Maravillas";"";"";"";"Metro: Tribunal (líneas 1 y 10), Noviciado (línea 2).  Bus: 002.  Bicimad: Estaciones 59 (calle Espíritu Santo, 30), 11 (calle San Andrés, 18).";"";"3";"http://www.madrid.es/sites/v/index.jsp?vgnextchannel=bfa48ab43d6bb410VgnVCM100000171f5a0aRCRD&vgnextoid=1540f6f716773810VgnVCM2000001f4a900aRCRD";"SAN VICENTE FERRER";"CALLE";"V";"33";"";"";"";"";"MADRID";"MADRID";"28004";"5";"UNIVERSIDAD";"1";"CENTRO";"440254";"4475253";"40.42576766014132";"-3.7043188911922034";"";"";"";"/contenido/entidadesYorganismos/AuditoriosSalasConcierto"; 
4676668;"Sala Moby Dick";"";"";"Estilos: Indie, Pop, Rock.";"Metro: Santiago Bernabeu (línea 10).  Bus: 5, 149.  Bicimad: Estación 154 (calle Orense, 36).  Aparcamiento: General Yag&amp;uuml;e (28), Avenida Brasil, 15.";"";"3";"http://www.madrid.es/sites/v/index.jsp?vgnextchannel=bfa48ab43d6bb410VgnVCM100000171f5a0aRCRD&vgnextoid=e2c1f1480bbe5110VgnVCM1000000b205a0aRCRD";"BRASIL";"AVENIDA";"V";"5";"";"";"";"";"MADRID";"MADRID";"28020";"2";"CUATRO CAMINOS";"6";"TETUAN";"441151";"4478434";"40.454487186392804";"-3.694056023965524";"915 557 671";"";"";"/contenido/entidadesYorganismos/AuditoriosSalasConcierto"; 
11784440;"Sala Moe";"";"";"Estilos: Blues, Funk, Jazz.";"Metro: Colombía (líneas 8 y 9), Cuzco (línea 10).  Bus: 11, 40, 14.  Bicimad: Estación 158 (avenida de Alberto Alcocer, 22).";"";"3";"http://www.madrid.es/sites/v/index.jsp?vgnextchannel=bfa48ab43d6bb410VgnVCM100000171f5a0aRCRD&vgnextoid=fc80f6f716773810VgnVCM2000001f4a900aRCRD";"ALBERTO ALCOCER";"AVENIDA";"V";"32";"";"";"";"";"MADRID";"MADRID";"28036";"4";"HISPANOAMERICA";"5";"CHAMARTIN";"442126";"4478859";"40.458391668385886";"-3.682578546152118";"";"";"";"/contenido/entidadesYorganismos/AuditoriosSalasConcierto"; 
11784444;"Sala Morocco";"";"";"";"Metro: Santo Domingo (línea 2).  Bus: 147, 3, 001, 1, 133, 148, 2, 44, 46, 74, 75, 146.  Bicimad: Estaciones 16 (calle San Bernardo, 22), 23 (plaza de Santo Domingo, 1), 2 (calle Miguel Moya, 1), 22 (calle Jacometrezo, 3).  Aparcamientos: Isabel la Católica (98), calle de Isabel la Católica; Mostenses (50), plaza Mostenses y calle Ricardo León; Luna-Tudescos (14), plaza Santa María Soledad Torres Acosta con vuelta a calle Luna; El Corte Inglés Callao (92), plaza de Callao.";"";"3";"http://www.madrid.es/sites/v/index.jsp?vgnextchannel=bfa48ab43d6bb410VgnVCM100000171f5a0aRCRD&vgnextoid=3372f6f716773810VgnVCM2000001f4a900aRCRD";"MARQUES DE LEGANES";"CALLE";"V";"7";"";"";"";"";"MADRID";"MADRID";"28004";"5";"UNIVERSIDAD";"1";"CENTRO";"439995";"4474846";"40.42208944721562";"-3.707330170865411";"670 776 069 / 630 652 585";"";"";"/contenido/entidadesYorganismos/AuditoriosSalasConcierto"; 
11784489;"Sala Olvido";"";"";"Estilos: Blues, Funk, Jazz, Rock.";"Metro: Usera (línea 6).  Bus: 247, 47, 6, 78.  Bicimad: Estación 213 (calle Antonio López, 129).";"";"3";"http://www.madrid.es/sites/v/index.jsp?vgnextchannel=bfa48ab43d6bb410VgnVCM100000171f5a0aRCRD&vgnextoid=a1b7f6f716773810VgnVCM2000001f4a900aRCRD";"OLVIDO";"CALLE";"V";"15";"";"";"";"";"MADRID";"MADRID";"28026";"5";"MOSCARDO";"12";"USERA";"440347";"4470923";"40.38676778449733";"-3.7028121779092706";"619 222 919";"";"";"/contenido/entidadesYorganismos/AuditoriosSalasConcierto"; 
11784467;"Sala Rock Palace";"";"";"Estilos: Rock.";"Metro: Atocha (línea 1).  Bus: 102, 8.  Bicimad: Estación 118 (calle Juan Martín el Empecinado, 16).  Cercanías Renfe: Atocha (líneas C1, C2, C3, C4, C4a, C4b, C5, C7, C10).";"";"3";"http://www.madrid.es/sites/v/index.jsp?vgnextchannel=bfa48ab43d6bb410VgnVCM100000171f5a0aRCRD&vgnextoid=f8f3f6f716773810VgnVCM2000001f4a900aRCRD";"VARA DE REY";"CALLE";"V";"6";"";"";"";"";"MADRID";"MADRID";"28045";"6";"PALOS DE MOGUER";"2";"ARGANZUELA";"441492";"4472615";"40.402096733788525";"-3.6894789064548985";"914 670 623";"";"";"/contenido/entidadesYorganismos/AuditoriosSalasConcierto"; 
11784480;"Sala Rockville";"";"";"";"Metro: Santiago Bernabeu (línea 10).  Bus: 149, 5, 43.  Bicimad: Estaciones 154 (calle Orense, 36), 153 (avenida del General Perón, 36).  Aparcamiento: General Yag&amp;uuml;e (28), Avenida Brasil, 15.";"";"3";"http://www.madrid.es/sites/v/index.jsp?vgnextchannel=bfa48ab43d6bb410VgnVCM100000171f5a0aRCRD&vgnextoid=70c5f6f716773810VgnVCM2000001f4a900aRCRD";"BRASIL";"AVENIDA";"V";"3";"";"";"";"";"MADRID";"MADRID";"28020";"2";"CUATRO CAMINOS";"6";"TETUAN";"441148";"4478377";"40.45397721814547";"-3.6940692978540577";"";"";"";"/contenido/entidadesYorganismos/AuditoriosSalasConcierto"; 
11784498;"Sala Shoko Live";"";"";"Estilos: Blues, funk, hiphop, jazz, latino, rock.";"Metro: La Latina (línea 5).  Bus: 002, 17, 18, 23, 35, 60, 148, 3.  Bicimad: Estación 45 (glorieta de la Puerta de Toledo, 1.  Aparcamientos: La Latina (86), calle de Toledo; Mercado de la Cebada (501), plaza de la Cebada; Puerta Toledo (64), Glorieta Puerta Toledo con vuelta Capitan Salazar Martínez.";"";"3";"http://www.madrid.es/sites/v/index.jsp?vgnextchannel=bfa48ab43d6bb410VgnVCM100000171f5a0aRCRD&vgnextoid=174a3474eb873810VgnVCM2000001f4a900aRCRD";"TOLEDO";"CALLE";"V";"86";"";"";"";"";"MADRID";"MADRID";"28005";"1";"PALACIO";"1";"CENTRO";"439707";"4473364";"40.408711650639454";"-3.710591520837748";"663 700 844";"";"";"/contenido/entidadesYorganismos/AuditoriosSalasConcierto"; 
11784510;"Sala Silikona";"";"";"Estilos: Heavy Metal, Pop, Rock.";"Metro: Vinateros (línea 9).  Bus: 100, 8, 20, 30, 32.  Bicimad: Estación 220 (calle Arrroyo de las Pilillas, 6).   Aparcamiento:  Encuentro (4), plaza Encuentro.";"";"3";"http://www.madrid.es/sites/v/index.jsp?vgnextchannel=bfa48ab43d6bb410VgnVCM100000171f5a0aRCRD&vgnextoid=085c3474eb873810VgnVCM2000001f4a900aRCRD";"ENCUENTRO";"PLAZA";"V";"1";"";"";"";"";"MADRID";"MADRID";"28030";"4";"MEDIA LEGUA";"14";"MORATALAZ";"444675";"4473006";"40.40583620131156";"-3.6520077936350175";"914 399 476 / 650 829 322";"";"";"/contenido/entidadesYorganismos/AuditoriosSalasConcierto"; 
11784520;"Sala Siroco";"";"";"Estilos: Electrónica, funk, indie, pop, reggae, rock.";"Metro: Noviciado (línea 2), San Bernardo (líneas 2 y 4).  Bus: 147, 3, 002.  Bicimad: Estaciones 15 (calle San Vicente Ferrer, 64), 13 (calle Conde Duque, 22), 12 (calle San Bernardo, 85).";"";"3";"http://www.madrid.es/sites/v/index.jsp?vgnextchannel=bfa48ab43d6bb410VgnVCM100000171f5a0aRCRD&vgnextoid=4fde3474eb873810VgnVCM2000001f4a900aRCRD";"MARQUES DE LEGANES";"CALLE";"V";"7";"";"";"";"";"MADRID";"MADRID";"28004";"5";"UNIVERSIDAD";"1";"CENTRO";"439995";"4474846";"40.42208944721562";"-3.707330170865411";"915 933 173";"";"";"/contenido/entidadesYorganismos/AuditoriosSalasConcierto"; 
7035002;"Sala Tempo Audiophile Club";"";"";"Estilos: Funk, Soul.";"Metro: Plaza de España (líneas 3 y 10)  Bus: 001, 1, 133, 138, 2, 44, C1, 74, C2, 39.  Bicimad: Estaciones 116 a y b (Plaza de España), 14 (calle Duque de Liria).  Aparcamiento: Plaza de España (53).";"";"3";"http://www.madrid.es/sites/v/index.jsp?vgnextchannel=bfa48ab43d6bb410VgnVCM100000171f5a0aRCRD&vgnextoid=aec1b043653cf310VgnVCM1000000b205a0aRCRD";"DUQUE DE OSUNA";"CALLE";"V";"8";"";"";"";"";"MADRID";"MADRID";"28015";"5";"UNIVERSIDAD";"1";"CENTRO";"439610";"4475206";"40.425297538012565";"-3.711910103061732";"915 477 518";"";"";"/contenido/entidadesYorganismos/AuditoriosSalasConcierto"; 
11784538;"Sala The Irish Rover";"";"";"Estilos: Blues, jazz, músicas del mundo, rock.";"Metro: Santiago Bernabeu (línea 10).  Bus: 5, 149, 126.  Bicimad: Estaciones 154 (calle Orense, 36), 238 (calle San Germán, 5).  Aparcamientos: General Yag&amp;uuml;e (28), Avenida Brasil, 15, Brasil (18), avenida de Brasil entre General Yag&amp;uuml;e y Pedro Texeira).";"";"3";"http://www.madrid.es/sites/v/index.jsp?vgnextchannel=bfa48ab43d6bb410VgnVCM100000171f5a0aRCRD&vgnextoid=d4223474eb873810VgnVCM2000001f4a900aRCRD";"BRASIL";"AVENIDA";"V";"7";"";"";"";"";"MADRID";"MADRID";"28020";"2";"CUATRO CAMINOS";"6";"TETUAN";"441158";"4478468";"40.45480073078596";"-3.693964081346134";"915 974 811";"";"";"/contenido/entidadesYorganismos/AuditoriosSalasConcierto"; 
11784600;"Sala Thundercat";"";"";"Estilos: Rock.";"Metro: Alonso Martínez (líneas 4, 5 y 10).  Bus: 3, 21, 37, C03.  Bicimad: Estaciones 8 (plaza de Alonso Martínez, 5), 7 (calle Hortaleza, 75), 26 (plaza de las Salesas, 7).  Cercanías Renfe: Recoletos (líneas C1, C2, C7, C10 y Regional).  Aparcamientos: Villa de París (67), plaza Villa de París.";"";"3";"http://www.madrid.es/sites/v/index.jsp?vgnextchannel=bfa48ab43d6bb410VgnVCM100000171f5a0aRCRD&vgnextoid=a2c8f1a88e873810VgnVCM2000001f4a900aRCRD";"CAMPOAMOR";"CALLE";"V";"11";"";"";"";"";"MADRID";"MADRID";"28004";"4";"JUSTICIA";"1";"CENTRO";"440982";"4475298";"40.426223842431455";"-3.695739772150343";"654 511 457";"";"";"/contenido/entidadesYorganismos/AuditoriosSalasConcierto"; 
11784620;"Sala Vesta";"";"";"";"Metro: Chueca (línea 5), Colón (línea 4), Alonso Martínez (líneas 4, 5 y 10).  Bus: 37.  Bicimad: Estaciones 19 (calle Prim, 2), 26 (plaza de las Salesas, 7).  Cercanías Renfe: Recoletos (líneas C1, C2, C7, C10 y Regional).  Aparcamientos: Gravina 21 (89), calle Gravina; garaje Piamonte (96).";"";"3";"http://www.madrid.es/sites/v/index.jsp?vgnextchannel=bfa48ab43d6bb410VgnVCM100000171f5a0aRCRD&vgnextoid=4c2af1a88e873810VgnVCM2000001f4a900aRCRD";"BARQUILLO";"CALLE";"V";"29";"";"";"";"";"MADRID";"MADRID";"28004";"4";"JUSTICIA";"1";"CENTRO";"440986";"4474935";"40.42296190576902";"-3.695655945813078";"";"";"";"/contenido/entidadesYorganismos/AuditoriosSalasConcierto"; 
10187413;"Tablao Flamenco Café Ziryab";"";"";"";"Metro: Acacias (línea 5), Embajadores (línea 3), Pirámides (línea 5).  Bus: 62.  Cercanías Renfe: Pirámides (líneas C1 y C10), Embajadores (línea C5).  Bicimad: Estaciones 170 (paseo de la Esperanza, 21) y 163 (paseo de la Esperanza, 2).";"";"3";"http://www.madrid.es/sites/v/index.jsp?vgnextchannel=bfa48ab43d6bb410VgnVCM100000171f5a0aRCRD&vgnextoid=504212e1c4d48510VgnVCM2000001f4a900aRCRD";"ESPERANZA";"PASEO";"V";"17";"";"";"";"";"MADRID";"MADRID";"28005";"2";"ACACIAS";"2";"ARGANZUELA";"440164";"4472643";"40.40224798842407";"-3.7051358275837947";"618 103 803";"";"anja@cafeziryab.com";"/contenido/entidadesYorganismos/Teatros"; 
10187763;"Tablao Flamenco Cardamomo";"";"";"";"Metro: Sevilla (línea 2), Antón Martín (línea 1), Sol (líneas 1, 2 y 3).  Bus: 002, M1, 51.  Cercanías Renfe: Sol (líneas C3 y C4).  Bicimad: Estaciones 52 (plaza Santa Ana, 10), 28 (calle Alcalá, 27).  Aparcamiento: Plaza de Santa Ana (77); Sevilla (41), calle Sevilla y calle Alcalá; Hub de Movilidad Canalejas 360 (1239), calle Alcalá, 17.";"";"3";"http://www.madrid.es/sites/v/index.jsp?vgnextchannel=bfa48ab43d6bb410VgnVCM100000171f5a0aRCRD&vgnextoid=1657b096d9d48510VgnVCM2000001f4a900aRCRD";"ECHEGARAY";"CALLE";"V";"15";"";"";"";"";"MADRID";"MADRID";"28014";"3";"CORTES";"1";"CENTRO";"440650";"4474106";"40.41546754063365";"-3.6995403937914704";"918 051 038";"";"reservas@cardamomo.com";"/contenido/entidadesYorganismos/Teatros"; 
10187520;"Tablao Flamenco Corral de la Morería";"";"";"";"Metro: La Latina (línea 5).  Bus: 148, 3, 31, 50, 65.  Bicimad: Estaciones 166 (calle Segovia, 26), 37 (plaza de San Francisco, 5), 38 (carrera de San Francisco, 1).";"";"3";"http://www.madrid.es/sites/v/index.jsp?vgnextchannel=bfa48ab43d6bb410VgnVCM100000171f5a0aRCRD&vgnextoid=d23712e1c4d48510VgnVCM2000001f4a900aRCRD";"MORERIA";"CALLE";"V";"17";"";"";"";"";"MADRID";"MADRID";"28005";"1";"PALACIO";"1";"CENTRO";"439399";"4473810";"40.412712789880366";"-3.7142548150063295";"913 651 137";"";"info@corraldelamoreria.com";"/contenido/entidadesYorganismos/Teatros"; 
10187560;"Tablao Flamenco de Leones";"";"";"";"Metro: Retiro (línea 2).  Bus: 1, 146, 15, 2, 20, 51, 52, 74, 9, 28, 19.B  Cercanías Renfe: Recoletos (líneas C1, C2, C7 y C10).  Bicimad: Estaciones 60 (plaza de la Independencia, 6), 107 (calle Serrano, 8).  Aparcamiento: Serrano III (40), calle Serrano entre Jorge Juan y plaza de la Independencia.";"";"3";"http://www.madrid.es/sites/v/index.jsp?vgnextchannel=bfa48ab43d6bb410VgnVCM100000171f5a0aRCRD&vgnextoid=be49b096d9d48510VgnVCM2000001f4a900aRCRD";"INDEPENDENCIA";"PLAZA";"V";"4";"1";"";"";"";"MADRID";"MADRID";"28001";"1";"RECOLETOS";"4";"SALAMANCA";"441544";"4474675";"40.42065971465086";"-3.6890553146620775";"662 299 923";"";"info@flamencodeleones.es";"/contenido/entidadesYorganismos/Teatros"; 
7091929;"Tablao Flamenco Las Carboneras";"";"";"";"Metro: Ópera (líneas 2, 5 y Regional).  Bus: 31, 50, 65.   Bicimad :   Estaciones 9 (plaza de San Miguel, 9) y 35 (plaza del Cordón).   Aparcamiento: Plaza Mayor (55).";"";"3";"http://www.madrid.es/sites/v/index.jsp?vgnextchannel=bfa48ab43d6bb410VgnVCM100000171f5a0aRCRD&vgnextoid=87c76036342f0410VgnVCM2000000c205a0aRCRD";"CONDE DE MIRANDA";"CALLE";"V";"1";"";"";"";"";"MADRID";"MADRID";"28005";"1";"PALACIO";"1";"CENTRO";"439829";"4474065";"40.415035593525715";"-3.7092201911733795";"915 428 677";"";"sugerencias@tabalaolascarboneras.com";"/contenido/entidadesYorganismos/AuditoriosSalasConcierto"; 
10187547;"Tablao Flamenco Torres Bermejas";"";"";"";"Metro: Callao (líneas 3 y 5), Gran Vía (líneas 1 y 5), Sol (líneas 1, 2 y 3).  Bus: 001, 1, 146, 2, 3, 46, 74, 002.  Cercanías Renfe: Sol (líneas C3 y C4).  Bicimad: Estaciones 210 (Tres Cruces, 7), 211 (Desengaño, 1), 2 (calle Miguel Moya, 1).  Aparcamientos: El Corte Inglés Callao (92), plaza de Callao; Luna-Tudescos (102) calle Tudescos; Luna-Tudescos (14), plaza Santa María Soledad Torres Acosta con vuelta a calle Luna); plaza del Carmen (8); el Corte Inglés Preciados (93), calle Preciados.";"";"3";"http://www.madrid.es/sites/v/index.jsp?vgnextchannel=bfa48ab43d6bb410VgnVCM100000171f5a0aRCRD&vgnextoid=8168b096d9d48510VgnVCM2000001f4a900aRCRD";"MESONERO ROMANOS";"CALLE";"V";"11";"";"";"";"";"MADRID";"MADRID";"28013";"6";"SOL";"1";"CENTRO";"440261";"4474600";"40.419889267861706";"-3.7041707075343053";"915 323 322";"";"reservas@torresbermejas.com";"/contenido/entidadesYorganismos/Teatros"; 
2196;"Teatro Real";"Proyectado por Antonio López Aguado en 1818 siguiendo la tipología clásica de teatros del siglo XVIII. Intervienen en su construcción Custodio Moreno e Isidro González Velázquez. De planta irregular hexagonal, presenta dos fachadas principales: una orientada a la plaza de Isabel II, con poca decoración, y la otra al Palacio Real y plaza de Oriente, realizada por González Velázquez y más ornamentada. En el interior destaca el techo de la Gran Sala pintado por Lucas y la lámpara de bronce dorado. En 1925 se cierra por amenaza de ruina y se inicia su reconstrucción a partir de 1940. El 11 de octubre de 1997 se abre como teatro de ópera.";"";"";"Metro: Ópera (líneas 2, 5 y Ramal Opera-Príncipe Pío).  Bicimad:  Estación 24 (calle Carlos III, 1).   Parking: Descalzas (20), Plaza Descalzas y Plaza San Martín.";"";"3";"http://www.madrid.es/sites/v/index.jsp?vgnextchannel=bfa48ab43d6bb410VgnVCM100000171f5a0aRCRD&vgnextoid=6fc179262ef5d010VgnVCM1000000b205a0aRCRD";"ISABEL II";"PLAZA";"V";"1";"";"";"";"";"MADRID";"MADRID";"28013";"1";"PALACIO";"1";"CENTRO";"439834";"4474367";"40.41776291784375";"-3.70918800795985";"915 160 600 (Oficinas) / 915 160 660 (Taquilla) / 900 244 848 (Información y venta telefónica)";"915 160 651";"info@teatroreal.es";"/contenido/entidadesYorganismos/AuditoriosSalasConcierto"; 
122295;"Templete de Música - Parque de La Bombilla";"Su mantenimiento es competencia de la Junta de Distrito de Moncloa - Aravaca.  Actividades: espectáculos variados durante los meses de verano.";"";"";"Metro: Príncipe Pío (líneas 6, 10 y Ramal).  Bus: 46, 41, 75.  Cercanías RENFE: Príncipe Pío (líneas C1, C7, C10 y Regional).  Bicimad: Estación 161 (paseo de la Florida, 8).";"";"0";"http://www.madrid.es/sites/v/index.jsp?vgnextchannel=bfa48ab43d6bb410VgnVCM100000171f5a0aRCRD&vgnextoid=9233cbf06c81c010VgnVCM1000000b205a0aRCRD";"SAN ANTONIO DE LA FLORIDA";"GLORIETA";"V";"9";"";"";"";"";"MADRID";"MADRID";"28008";"1";"CASA DE CAMPO";"9";"MONCLOA-ARAVACA";"438418";"4475299";"40.42605230927826";"-3.7259668640812973";"915 885 809";"";"cultumoncloa@madrid.es";"/contenido/entidadesYorganismos/AuditoriosSalasConcierto"; 
165847;"WiZink Center";"";"";"";"Metro: Goya (líneas 2 y 4), O'Donnell (línea 6).  Bus: 30, C1, 43, 53, 146, 21, 26, 61, C2, 215, 15, 63, 29.  Bicimad: Estaciones 100 (calle Goya, 99) y 98 (plaza de Felipe II).  Aparcamiento: Felipe II (26), avenida Felipe II y calle Goya.";"";"1";"http://www.madrid.es/sites/v/index.jsp?vgnextchannel=bfa48ab43d6bb410VgnVCM100000171f5a0aRCRD&vgnextoid=322a8f90a581c010VgnVCM1000000b205a0aRCRD";"JORGE JUAN";"CALLE";"V";"99";"";"";"";"";"MADRID";"MADRID";"28009";"2";"GOYA";"4";"SALAMANCA";"442985";"4474954";"40.4232728637422";"-3.672100625564379";"914 449 949";"";"";"/contenido/entidadesYorganismos/AuditoriosSalasConcierto"; 

