PK;NOMBRE;DESCRIPCION-ENTIDAD;HORARIO;EQUIPAMIENTO;TRANSPORTE;DESCRIPCION;ACCESIBILIDAD;CONTENT-URL;NOMBRE-VIA;CLASE-VIAL;TIPO-NUM;NUM;PLANTA;PUERTA;ESCALERAS;ORIENTACION;LOCALIDAD;PROVINCIA;CODIGO-POSTAL;COD-BARRIO;BARRIO;COD-DISTRITO;DISTRITO;COORDENADA-X;COORDENADA-Y;LATITUD;LONGITUD;TELEFONO;FAX;EMAIL;TIPO;
10511835;"Cafe Teatro Serendipia";"";"";"";"Metro: Pueblo Nuevo (lineas 5 y 7).  Bus: 109, 113, 38.  Bicimad: Estaciones 482 (Campuzano, 1), 232 (calle Jose Maria de Pereda, 1), 229 (calle Jose de Hierro, 5).  Aparcamiento: Corazon de Maria II (3), calle Corazon de Maria (final calle).";"";"3";"http://www.madrid.es/sites/v/index.jsp?vgnextchannel=bfa48ab43d6bb410VgnVCM100000171f5a0aRCRD&vgnextoid=42a8fca35ccee510VgnVCM2000001f4a900aRCRD";"GERMAN PEREZ CARRASCO";"CALLE";"V";"21";"";"";"";"";"MADRID";"MADRID";"28027";"3";"QUINTANA";"15";"CIUDAD LINEAL";"445222";"4476261";"40.435190000069746";"-3.645847906504054";"601 184 771";"";"info@cafeteatroserendipia.com";"/contenido/entidadesYorganismos/Teatros"; 
7869361;"DT Espacio Escenico";"";"";"";"Metro: Gran Via (lineas 1 y 5).  Bus: 002, 3, 46, 001, 1, 146, 2, 74.  Bicimad: Estaciones 18 (plaza Pedro Zerolo, 1), 211 (calle Desengaño, 1).  Aparcamiento: Plaza Pedro Zerolo (71).";"";"3";"http://www.madrid.es/sites/v/index.jsp?vgnextchannel=bfa48ab43d6bb410VgnVCM100000171f5a0aRCRD&vgnextoid=e9e472de9f53b410VgnVCM1000000b205a0aRCRD";"REINA";"CALLE";"V";"9";"";"";"";"";"MADRID";"MADRID";"28004";"4";"JUSTICIA";"1";"CENTRO";"440593";"4474656";"40.420414039152284";"-3.7002705949717654";"915 217 155";"";"dtespacioescenico@dtespacioescenico.com";"/contenido/entidadesYorganismos/Teatros"; 
11742393;"El Pasillo Verde Teatro";"";"";"";"Metro: Embajadores (linea 3), Acacias (linea 5).  Bus: 62.  Cercanias Renfe: Embajadores (linea C5).  Bicimad: Estacion 170 (paseo de la Esperanza, 21).";"";"3";"http://www.madrid.es/sites/v/index.jsp?vgnextchannel=bfa48ab43d6bb410VgnVCM100000171f5a0aRCRD&vgnextoid=dff52a5e30e52810VgnVCM1000001d4a900aRCRD";"ESPERANZA";"PASEO";"V";"23";"";"";"";"y 25";"MADRID";"MADRID";"28005";"2";"ACACIAS";"2";"ARGANZUELA";"440246";"4472488";"40.400858509417404";"-3.7041471309706053";"624 812 312";"";"info@elpasilloverdeteatro.com";"/contenido/entidadesYorganismos/Teatros"; 
10037757;"El umbral de la primavera";"";"";"";"Metro: Lavapies (linea 3), Anton Martin (linea 1).  Bus: M1.  Bicimad: Estaciones 53 (calle Valencia, 1), 43 (calle Lavapies, 34), 42 (calle Santa Isabel, 32).  Aparcamientos: Garaje Amparo (75), calle Amparo; Agustin Lara (73), plaza Arturo Barea.";"";"3";"http://www.madrid.es/sites/v/index.jsp?vgnextchannel=bfa48ab43d6bb410VgnVCM100000171f5a0aRCRD&vgnextoid=29aa50fba2504510VgnVCM2000001f4a900aRCRD";"PRIMAVERA";"CALLE";"V";"11";"";"";"";"";"MADRID";"MADRID";"28012";"2";"EMBAJADORES";"1";"CENTRO";"440573";"4473448";"40.40953475016707";"-3.7003837471642353";"605 849 867";"";"elumbraldeprimavera@gmail.com";"/contenido/entidadesYorganismos/Teatros"; 
1915;"Fernan Gomez Centro Cultural de la Villa";"";"";"Sala Guirau (aforo 689 personas).  Sala Jardiel Poncela (aforo desde 95 hasta 175 personas, depende de la disposicion de la obra que represente).   Sala de exposiciones (2000 m2)  Sala III   Sala Polivalente.";"Metro: Colon (linea 4), Serrano (linea 4)  Bus: 14, 150, 27, 45, 5, 21, 37, C03, 53  Bicimad: Estacion 93 (calle Goya, 1) / Estacion 10 (calle Marques de la Ensenada, 16)  Renfe: Recoletos  Aparcamiento: Colon (2), Plaza de Colon";"";"1,6";"http://www.madrid.es/sites/v/index.jsp?vgnextchannel=bfa48ab43d6bb410VgnVCM100000171f5a0aRCRD&vgnextoid=ba663d0b5e71c010VgnVCM1000000b205a0aRCRD";"COLON";"PLAZA";"V";"4";"";"";"";"";"MADRID";"MADRID";"28001";"1";"RECOLETOS";"4";"SALAMANCA";"441472";"4475155";"40.4249721516942";"-3.689948085098791";"914 362 540 / 913 184 630 / 913 184 631 (Centralita)
913 184 631 (Informacion programacion)";"";"info.tfg@teatrofernangomez.es";"/contenido/entidadesYorganismos/Teatros"; 
10037852;"Gran Teatro CaixaBank  Principe Pio";"";"";"";"Metro: Principe Pio (lineas 6, 10 y Ramal).  Bus: 138, 25, 39, 46, 62, 75, C2, C1, 33, 41.  Cercanias Renfe: Principe Pio (C1, C7 y C10).  Bicimad: Estacion 161 (paseo de la Florida, 8).";"";"3";"http://www.madrid.es/sites/v/index.jsp?vgnextchannel=bfa48ab43d6bb410VgnVCM100000171f5a0aRCRD&vgnextoid=44d450fba2504510VgnVCM2000001f4a900aRCRD";"SAN VICENTE";"CUESTA";"V";"44";"";"";"";"";"MADRID";"MADRID";"28008";"1";"CASA DE CAMPO";"9";"MONCLOA-ARAVACA";"438998";"4474671";"40.420432959783184";"-3.719071300719494";"911 331 353";"";"atencionalcliente@laestacion.com";"/contenido/entidadesYorganismos/Teatros"; 
6599384;"Microteatro Por Dinero";"";"";"";"Metro: Callao (lineas 3 y 5), Gran Via (lineas 1 y 5).  Bus: 002, 001, 1, 146,  2, 46, 74, 3.  Bicimad: Estaciones 211 (Desengaño, 1), 17 (plaza de Carlos Carbonero, 2) y 2 (calle Miguel Moya, 1).  Aparcamientos: Luna-Tudescos (14) (plaza Santa Maria Soledad Torres Acosta con vuelta a calle Luna); Barco 1 (88) calle Barco; Luna-Tudescos (102), Tudescos.";"";"3";"http://www.madrid.es/sites/v/index.jsp?vgnextchannel=bfa48ab43d6bb410VgnVCM100000171f5a0aRCRD&vgnextoid=5546a391f9a2a310VgnVCM1000000b205a0aRCRD";"LORETO Y CHICOTE";"CALLE";"V";"9";"";"";"";"";"MADRID";"MADRID";"28004";"5";"UNIVERSIDAD";"1";"CENTRO";"440272";"4474782";"40.421531134455776";"-3.70405733689846";"915 218 874";"";"info@microteatro.es";"/contenido/entidadesYorganismos/Teatros"; 
6963121;"Naves Español en Matadero";"Con la apertura de las Naves del Español se inauguro una nueva era en la produccion y exhibicion de las artes escenicas en Madrid. Las Naves se presentaron como un espacio abierto a la reflexion y experimentacion a todas las propuestas mas vanguardistas atendiendo a sus espacios configurables. Para la eleccion de estas naves y su adecuacion como espacio escenico el Ayuntamiento de Madrid conto con la colaboracion de Jean-Guy Lecat, escenografo frances mundialmente conocido por sus sorprendentes montajes para directores como Peter Brook, Jorge Lavelli o Dario Fo entre otros.  Jean-Guy Lecat junto al director, en aquellos momentos, del Teatro Español, Mario Gas y el director tecnico Francisco Fontanals, realizaron el proyecto que definia la transformacion de estas naves industriales en el centro de artes escenicas: las Naves del Español. El resultado fue un espacio teatral conformado por las naves: 10, 11 y 12, unidas entre si. En la Nave 12 se encuentra el Cafe teatro donde se puede disfrutar de la programacion de espectaculos musicales de pequeño formato y ademas sirve de foyer o vestibulo de entrada a la Nave 11 donde se ubica la Sala Fernando Arrabal. Una sala polivalente con mas de 600 localidades entorno a la cual se disponen camerinos, salas de trabajo tecnico y almacenes. La Nave 10 se inauguro en septiembre de 2010, en ella se alberga, un gran espacio expositivo, dos esplendidas salas de ensayos y la Sala Max Aub, un espacio escenico plurivalente con capacidad para mas de 300 butacas. Desde su apertura las Naves del Español han sido regidas por Mario Gas, Juan Carlos Perez de la Fuente y Mateo Feijoo. Desde el año 2019 estan bajo la direccion de Natalia Menendez.  La representacion ha sido continuada desde su apertura pasando por sus dependencias las personas mas destacadas y relevantes de la dramaturgia, direccion, interpretacion, escenografia, iluminacion, vestuario&amp;hellip; del teatro de este pais y del mundo. Ademas de las salas de exhibicion se cuenta con aulas y espacios utilizados para uso publico con diferentes servicios como realizar e impartir cursos, talleres, charlas, encuentros y exposiciones.";"Horario de taquilla (situada frente a Cantina de Cineteca) en acceso Plaza de Legazpi: de martes a domingo, de 16:30 a 20:30 horas o hasta inicio de actividad.";"La Nave 10 se inauguro en septiembre de 2010. En ella se alberga un gran espacio expositivo, dos esplendidas salas de ensayos y la Sala Max Aub, un espacio escenico plurivalente con capacidad para mas de 300 butacas. En la Nave 11 se ubica la Sala Fernando Arrabal. Una sala polivalente con mas de 600 localidades entorno a la cual se disponen camerinos, salas de trabajo tecnico y almacenes. En la Nave 12 se encuentra el Cafe teatro donde se puede disfrutar de la programacion de espectaculos musicales de pequeño formato y ademas sirve de foyer o vestibulo de entrada a la Nave 11.";"Metro: Legazpi (lineas 6, 3)  Bus: 148, 18, 6, 78, 62  Renfe: Embajadores  Bicimad: Estacion 165 (Paseo Chopera, 14)";"Entradas en taquillas y Venta de entradas. Sistema de sobretitulado para personas con discapacidad auditiva. Sistema de audiodescripcion para personas con discapacidad visual.";"1,6";"http://www.madrid.es/sites/v/index.jsp?vgnextchannel=bfa48ab43d6bb410VgnVCM100000171f5a0aRCRD&vgnextoid=4582ee06ea5ee310VgnVCM2000000c205a0aRCRD";"CHOPERA";"PASEO";"V";"14";"";"";"";"";"MADRID";"MADRID";"28045";"3";"CHOPERA";"2";"ARGANZUELA";"440828";"4471551";"40.39245798191536";"-3.6972067902718897";"913 184 528 (taquilla) / 913 184 700 (informacion al espectador)";"";"";"/contenido/entidadesYorganismos/Teatros"; 
109277;"Nuevo Teatro Alcala";"";"";"";"Metro: Principe de Vergara (lineas 2 y 9), Goya (lineas 2 y 4).  Bus: 146, 152, 43, 15, 29, 52, 215, E2, E3, 21, 53, 30, 63, 26, 61, C1.  Bicimad: Estacion 97 (avenida Menendez Pelayo, 3), Estacion 98 (plaza de Felipe II).  Aparcamientos: Velazquez Jorge Juan (43) calle Velazquez y calle Jorge Juan; Felipe II (26) avenida Felipe II y calle Goya; Auditorio (45), calle Principe de Vergara junto Auditorio.";"";"3";"http://www.madrid.es/sites/v/index.jsp?vgnextchannel=bfa48ab43d6bb410VgnVCM100000171f5a0aRCRD&vgnextoid=b18d8c7c0f91f010VgnVCM1000000b205a0aRCRD";"JORGE JUAN";"CALLE";"V";"62";"";"";"";"";"MADRID";"MADRID";"28009";"2";"GOYA";"4";"SALAMANCA";"442464";"4474973";"40.42340491784923";"-3.678243555356179";"914 264 779";"";"atencionalcliente@somproduce.com";"/contenido/entidadesYorganismos/Teatros"; 
7875490;"Off Latina";"";"";"";"Metro: La Latina (linea 5).  Bus: 60, 148, 3, 31, 50, 65.  Bicimad: Estaciones 38 (carrera de San Francisco, 1), 37 (plaza de San Francisco, 5), 166 (calle Segovia, 26), 35 (plaza del Cordon), 39 (plaza de la Cebada, 16).  Aparcamiento: Mercado de la Cebada (501), plaza de la Cebada sin numero.";"";"3";"http://www.madrid.es/sites/v/index.jsp?vgnextchannel=bfa48ab43d6bb410VgnVCM100000171f5a0aRCRD&vgnextoid=23b5c6f83ef4b410VgnVCM1000000b205a0aRCRD";"MANCEBOS";"CALLE";"V";"4";"";"";"";"";"MADRID";"MADRID";"28005";"1";"PALACIO";"1";"CENTRO";"439592";"4473735";"40.41204972508413";"-3.7119760272304503";"911 691 419";"";"sala@offlatina.com";"/contenido/entidadesYorganismos/Teatros"; 
10140094;"Pequeño Teatro Gran Via";"";"";"";"Metro: Plaza de España (lineas 3 y 10), Santo Domingo (linea 2).  Bus: 148, 3, 46, 74, 75, 133, 44, 147, 001, 1, 2, 25, 146.  Bicimad: Estaciones 16 (calle San Bernardo, 22), 116b (calle Princesa, 5).  Aparcamientos: Isabel la Catolica (98) (calle Isabel la Catolica), Mostenses (50) (plaza Mostenses y calle Ricardo Leon).";"";"3";"http://www.madrid.es/sites/v/index.jsp?vgnextchannel=bfa48ab43d6bb410VgnVCM100000171f5a0aRCRD&vgnextoid=50efbe5ec3747510VgnVCM1000001d4a900aRCRD";"GRAN VIA";"CALLE";"V";"66";"";"";"";"";"MADRID";"MADRID";"28013";"5";"UNIVERSIDAD";"1";"CENTRO";"439858";"4474883";"40.422413433319086";"-3.7089446226591725";"915 415 569";"";"";"/contenido/entidadesYorganismos/Teatros"; 
11990372;"Real Teatro de Retiro. Centro Cultural Daoiz y Velarde";"El area de Cultura, Turismo y Deporte del Ayuntamiento de Madrid ha habilitado un nuevo espacio escenico en el Centro Cultural Daoiz y Velarde, ubicado en el distrito de Retiro, que amplia la descentralizacion de la cultura de la capital. Para ello, ha realizado una rehabilitacion integral del antiguo cuartel de artilleria de Daoiz y Velarde, construido a finales del siglo XIX, que ha buscado el equilibrio entre la arquitectura original y las funciones actuales. El Ayuntamiento de Madrid y el Teatro Real han firmado un acuerdo que permite poner en marcha un nuevo proyecto que nace con el objetivo de convertirse en un espacio cultural y artistico de referencia para niños y jovenes en la ciudad, en el que ofrecer un acercamiento y aprendizaje en el ambito de las artes escenicas, incluyendo opera, danza, teatro de texto, titeres, cuentos musicales, talleres y otras actividades para toda la familia. El edificio, de 7.700 m2 distribuidos en cuatro plantas, cuenta con un gran espacio para actos culturales y exposiciones, una Sala Principal con un amplio escenario y capacidad para 330 butacas, una Sala Polivalente (con 72 butacas en graderio retractil y espacio escenico versatil), salas de ensayos, talleres y otras dependencias auxiliares. Con la puesta en marcha de este nuevo centro municipal, el area de Cultura, Turismo y Deporte refuerza su compromiso con el tejido cultural madrileño, incrementa la oferta cultural en los distritos e incorpora un septimo espacio escenico en su red teatral. El Real Teatro de Retiro es el proyecto artistico del Teatro Real dedicado al publico infantil, juvenil y familiar. Su programacion incluye espectaculos de opera, teatro, titeres y danza para niños y jovenes asi como conciertos, cine, cuentos musicales y talleres dirigidos a grandes y pequeños. Los espectaculos se programan tambien para colegios con funciones escolares en horario de mañana. El espacio acoge los proyectos educativos y sociales LoVA (La opera, un Vehiculo de Aprendizaje) y AMI (Agrupacion Musical Inclusiva). El Real Teatro de Retiro surge de la colaboracion entre el Teatro Real y el Ayuntamiento de Madrid, promoviendo el acceso a la cultura y grandes experiencias para vivir en familia.";"Horarios de atencion y taquilla:   De miercoles a sabado y domingos con funcion: De 10 a 14 y de 16 a 19:30 horas. Domingos sin funcion: De 10 a 14 horas.   Funciones para colegios: Jueves y viernes por la mañana, para mas informacion escribir a: realjunior@teatroreal.es.";"Accesibilidad: 6 asientos para personas con movilidad reducida.   Canales de venta: Online, taquillas y telefonica.  Aforo: Sala Principal 330 butacas, Sala Pacifico 120 butacas.";"Metro: Pacifico (lineas 1 y 6).  Bus: 24, 37, 54, 57, 141.";"";"1";"http://www.madrid.es/sites/v/index.jsp?vgnextchannel=bfa48ab43d6bb410VgnVCM100000171f5a0aRCRD&vgnextoid=8f38753c30397810VgnVCM1000001d4a900aRCRD";"DAOIZ Y VELARDE";"PLAZA";"V";"4";"";"";"";"";"MADRID";"MADRID";"28007";"1";"PACIFICO";"3";"RETIRO";"442535";"4472575";"40.40180567689773";"-3.6771876805396864";"900 244 848";"";"";"/contenido/entidadesYorganismos/Teatros"; 
124469;"Replika Teatro";"";"";"";"Metro: Guzman el Bueno (lineas 6 y 7).  Bus: 45, C2, F, C1.  Bicimad: Estacion 256 (calle Beatriz de Bobadilla, 2).";"";"3";"http://www.madrid.es/sites/v/index.jsp?vgnextchannel=bfa48ab43d6bb410VgnVCM100000171f5a0aRCRD&vgnextoid=4d86051c8d91f010VgnVCM1000000b205a0aRCRD";"EXPLANADA";"CALLE";"V";"14";"";"";"";"";"MADRID";"MADRID";"28040";"3";"CIUDAD UNIVERSITARIA";"9";"MONCLOA-ARAVACA";"439637";"4477750";"40.44821880668578";"-3.7118246776358195";"915 350 570";"";"teatro@replikateatro.com";"/contenido/entidadesYorganismos/Teatros"; 
10035099;"Sala Arapiles 16";"";"";"";"Metro: Quevedo (linea 2).  Bus: 16, 61.  Bicimad: Estacion 127 (calle Fernando el Catolico, 127).";"";"3";"http://www.madrid.es/sites/v/index.jsp?vgnextchannel=bfa48ab43d6bb410VgnVCM100000171f5a0aRCRD&vgnextoid=9827c620420f3510VgnVCM1000001d4a900aRCRD";"ARAPILES";"CALLE";"V";"16";"";"";"";"";"MADRID";"MADRID";"28015";"2";"ARAPILES";"7";"CHAMBERI";"439935";"4476072";"40.43312718155775";"-3.708159572592643";"914 678 525";"";"arapiles16@unir.net";"/contenido/entidadesYorganismos/Teatros"; 
7875358;"Sala de Teatro La Escalera de Jacob";"";"";"";"Metro: Lavapies (linea 3).  Bus: M1.  Bicimad: Estaciones 43 (calle Lavapies, 34) y 53 (calle Valencia, 1).  Aparcamiento: Garaje Amparo (75), calle Amparo; Agustin Lara (73), plaza Arturo Barea.";"";"3";"http://www.madrid.es/sites/v/index.jsp?vgnextchannel=bfa48ab43d6bb410VgnVCM100000171f5a0aRCRD&vgnextoid=824ac6f83ef4b410VgnVCM1000000b205a0aRCRD";"LAVAPIES";"CALLE";"V";"9";"";"";"";"";"MADRID";"MADRID";"28012";"2";"EMBAJADORES";"1";"CENTRO";"440367";"4473650";"40.411337615129355";"-3.7028377820426464";"625 721 745";"";"info@laescaleradejacob.es";"/contenido/entidadesYorganismos/Teatros"; 
7093521;"Sala de teatro. La Usina";"";"";"";"Metro: Embajadores (linea 3).  Bus: 148, 60, 78, 55, 59, 6, 85.  Cercanias Renfe: Embajadores (linea C5).  Bicimad: Estacion 121 (paseo Santa Maria de la Cabeza, 58).";"";"3";"http://www.madrid.es/sites/v/index.jsp?vgnextchannel=bfa48ab43d6bb410VgnVCM100000171f5a0aRCRD&vgnextoid=2f408e01a3201410VgnVCM2000000c205a0aRCRD";"PALOS DE LA FRONTERA";"CALLE";"V";"4";"";"";"";"";"MADRID";"MADRID";"28012";"6";"PALOS DE LA FRONTERA";"2";"ARGANZUELA";"440590";"4472681";"40.40262694793048";"-3.7001185274328563";"914 684 754";"";"info@lausina.es";"/contenido/entidadesYorganismos/Teatros"; 
7246699;"Sala Nave 73";"";"";"";"Metro: Embajadores (linea 3), Palos de la frontera (linea 3).  Bus: 59, 6, 85, 148, 60, 78, 55.  Cercanias Renfe: Embajadores (linea C5).  Bicimad: Estacion 121 (paseo de Santa Maria de la Cabeza, 58).";"";"3";"http://www.madrid.es/sites/v/index.jsp?vgnextchannel=bfa48ab43d6bb410VgnVCM100000171f5a0aRCRD&vgnextoid=5d5b051dbc673410VgnVCM2000000c205a0aRCRD";"PALOS DE LA FRONTERA";"CALLE";"V";"5";"";"";"";"";"MADRID";"MADRID";"28012";"6";"PALOS DE LA FRONTERA";"2";"ARGANZUELA";"440712";"4472741";"40.40317027498394";"-3.698690325735142";"917 049 583";"";"info@nave73.es";"/contenido/entidadesYorganismos/Teatros"; 
7093690;"Sala Teatro Azarte";"";"";"";"Metro: Chueca (linea 5), Gran Via (lineas 1 y 5).  Bus: 3.  Bicimad: Estaciones 58 (calle Augusto Figueroa, 33) y 18 (plaza de Pedro Zerolo,1).  Aparcamientos: Plaza Pedro Zerolo (71), Mercado San Anton (94) Libertad.";"";"3";"http://www.madrid.es/sites/v/index.jsp?vgnextchannel=bfa48ab43d6bb410VgnVCM100000171f5a0aRCRD&vgnextoid=e2708ff0d6201410VgnVCM2000000c205a0aRCRD";"SAN MARCOS";"CALLE";"V";"19";"";"";"";"";"MADRID";"MADRID";"28004";"4";"JUSTICIA";"1";"CENTRO";"440756";"4474766";"40.421416728805845";"-3.698351923407877";"915 226 768";"";"info@azarte.com";"/contenido/entidadesYorganismos/Teatros"; 
1983;"Sala Teatro Exlimite";"";"";"";"Bus  : 6, 60, 81.   Bicimad: Estaciones 387 (calle Isabelita Usera, 44), 391 (calle Rafaela Ybarra, 22).";"";"3";"http://www.madrid.es/sites/v/index.jsp?vgnextchannel=bfa48ab43d6bb410VgnVCM100000171f5a0aRCRD&vgnextoid=8a2a8c7c0f91f010VgnVCM1000000b205a0aRCRD";"PRIMITIVA GA&amp;Ntilde;AN";"CALLE";"V";"5";"";"";"";"";"MADRID";"MADRID";"28026";"7";"PRADOLONGO";"12";"USERA";"439798";"4470277";"40.380914636125546";"-3.7092213102338736";"";"";"exlimite@exlimite.com";"/contenido/entidadesYorganismos/Teatros"; 
10511899;"Soho Club Teatro";"";"";"";"Metro: Plaza de España (lineas 3 y 10).  Bus: 148, 25, 3, 39, 46, 75, 138, 74, C2, 001, 1, 2, 133, 44.  Bicimad: Estaciones 116 a y b (calle Princesa, 5).  Aparcamiento: Plaza de España (53).";"";"3";"http://www.madrid.es/sites/v/index.jsp?vgnextchannel=bfa48ab43d6bb410VgnVCM100000171f5a0aRCRD&vgnextoid=2fa0fef1bacee510VgnVCM1000001d4a900aRCRD";"ESPAÑA";"PLAZA";"V";"6";"";"";"";"";"MADRID";"MADRID";"28008";"1";"PALACIO";"1";"CENTRO";"439605";"4474904";"40.4225784750317";"-3.711936020558947";"615 519 427";"";"info@teatrosohoclub.com";"/contenido/entidadesYorganismos/Teatros"; 
10511843;"Sojo Laboratorio Teatral.";"";"";"";"Metro: Piramides (linea 5), Puerta de Toledo (linea 5).  Bus: 17,18, 23, 34, 35, 36, 41, 62, 116, 118, 119, C03, N12, N15, N16, N26.  Cercanias Renfe: Piramides (lineas C1 y C10).  Bicimad: Estacion 162 (paseo de los Olmos, 28).";"";"3";"http://www.madrid.es/sites/v/index.jsp?vgnextchannel=bfa48ab43d6bb410VgnVCM100000171f5a0aRCRD&vgnextoid=3689fca35ccee510VgnVCM2000001f4a900aRCRD";"SAN ISIDORO DE SEVILLA";"CALLE";"V";"2";"";"";"";"";"MADRID";"MADRID";"28005";"2";"ACACIAS";"2";"ARGANZUELA";"439569";"4472902";"40.404543298550344";"-3.7121651506836235";"697 943 676";"";"sojoteatro@gmail.com";"/contenido/entidadesYorganismos/Teatros"; 
11083891;"Tablao Flamenco 1911";"";"";"";"Metro: Sol (lineas 1, 2 y 3), Tirso de Molina (linea 1), Anton Martin (linea 1).  Bus: 002, M1.  Cercanias Renfe: Sol (lineas C3 y C4).  Bicimad: Estaciones 52 (plaza de Santa Ana, 10), 34 (plaza de Jacinto Benavente), 33 (calle Carretas, 8).  Aparcamientos: Plaza de Santa (77), plaza Jacinto Benavente (15).";"";"3";"http://www.madrid.es/sites/v/index.jsp?vgnextchannel=bfa48ab43d6bb410VgnVCM100000171f5a0aRCRD&vgnextoid=fd89976f4f3fe610VgnVCM2000001f4a900aRCRD";"SANTA ANA";"PLAZA";"V";"15";"";"";"";"";"MADRID";"MADRID";"28012";"3";"CORTES";"1";"CENTRO";"440490";"4474047";"40.414922971596944";"-3.701424270015707";"910 112 233";"";"reservas@tablaoflamenco1911.com";"/contenido/entidadesYorganismos/Teatros"; 
10187413;"Tablao Flamenco Cafe Ziryab";"";"";"";"Metro: Acacias (linea 5), Embajadores (linea 3), Piramides (linea 5).  Bus: 62.  Cercanias Renfe: Piramides (lineas C1 y C10), Embajadores (linea C5).  Bicimad: Estaciones 170 (paseo de la Esperanza, 21) y 163 (paseo de la Esperanza, 2).";"";"3";"http://www.madrid.es/sites/v/index.jsp?vgnextchannel=bfa48ab43d6bb410VgnVCM100000171f5a0aRCRD&vgnextoid=504212e1c4d48510VgnVCM2000001f4a900aRCRD";"ESPERANZA";"PASEO";"V";"17";"";"";"";"";"MADRID";"MADRID";"28005";"2";"ACACIAS";"2";"ARGANZUELA";"440164";"4472643";"40.40224798842407";"-3.7051358275837947";"618 103 803";"";"anja@cafeziryab.com";"/contenido/entidadesYorganismos/Teatros"; 
10187763;"Tablao Flamenco Cardamomo";"";"";"";"Metro: Sevilla (linea 2), Anton Martin (linea 1), Sol (lineas 1, 2 y 3).  Bus: 002, M1, 51.  Cercanias Renfe: Sol (lineas C3 y C4).  Bicimad: Estaciones 52 (plaza Santa Ana, 10), 28 (calle Alcala, 27).  Aparcamiento: Plaza de Santa Ana (77); Sevilla (41), calle Sevilla y calle Alcala; Hub de Movilidad Canalejas 360 (1239), calle Alcala, 17.";"";"3";"http://www.madrid.es/sites/v/index.jsp?vgnextchannel=bfa48ab43d6bb410VgnVCM100000171f5a0aRCRD&vgnextoid=1657b096d9d48510VgnVCM2000001f4a900aRCRD";"ECHEGARAY";"CALLE";"V";"15";"";"";"";"";"MADRID";"MADRID";"28014";"3";"CORTES";"1";"CENTRO";"440650";"4474106";"40.41546754063365";"-3.6995403937914704";"918 051 038";"";"reservas@cardamomo.com";"/contenido/entidadesYorganismos/Teatros"; 
10187520;"Tablao Flamenco Corral de la Moreria";"";"";"";"Metro: La Latina (linea 5).  Bus: 148, 3, 31, 50, 65.  Bicimad: Estaciones 166 (calle Segovia, 26), 37 (plaza de San Francisco, 5), 38 (carrera de San Francisco, 1).";"";"3";"http://www.madrid.es/sites/v/index.jsp?vgnextchannel=bfa48ab43d6bb410VgnVCM100000171f5a0aRCRD&vgnextoid=d23712e1c4d48510VgnVCM2000001f4a900aRCRD";"MORERIA";"CALLE";"V";"17";"";"";"";"";"MADRID";"MADRID";"28005";"1";"PALACIO";"1";"CENTRO";"439399";"4473810";"40.412712789880366";"-3.7142548150063295";"913 651 137";"";"info@corraldelamoreria.com";"/contenido/entidadesYorganismos/Teatros"; 
10037667;"Tablao flamenco de la Villa";"";"";"";"Metro: Santo Domingo (linea 2), Callao (lineas 3 y 5), opera (lineas 2, 5 y Ramal), Plaza de España (lineas 3 y 10).  Bus: 44, 133.  Bicimad: Estaciones 30 (cale Pavia, 6) y 23 (plaza de Santo Domingo, 1).  Aparcamiento: Calle Isabel la Catolica (98).";"";"3";"http://www.madrid.es/sites/v/index.jsp?vgnextchannel=bfa48ab43d6bb410VgnVCM100000171f5a0aRCRD&vgnextoid=899732e49e404510VgnVCM2000001f4a900aRCRD";"TORIJA";"CALLE";"V";"7";"";"";"";"";"MADRID";"MADRID";"28013";"1";"PALACIO";"1";"CENTRO";"439731";"4474700";"40.420747202885515";"-3.710428523676321";"912 042 428";"";"info@tablaodelavilla.com";"/contenido/entidadesYorganismos/Teatros"; 
10187560;"Tablao Flamenco de Leones";"";"";"";"Metro: Retiro (linea 2).  Bus: 1, 146, 15, 2, 20, 51, 52, 74, 9, 28, 19.B  Cercanias Renfe: Recoletos (lineas C1, C2, C7 y C10).  Bicimad: Estaciones 60 (plaza de la Independencia, 6), 107 (calle Serrano, 8).  Aparcamiento: Serrano III (40), calle Serrano entre Jorge Juan y plaza de la Independencia.";"";"3";"http://www.madrid.es/sites/v/index.jsp?vgnextchannel=bfa48ab43d6bb410VgnVCM100000171f5a0aRCRD&vgnextoid=be49b096d9d48510VgnVCM2000001f4a900aRCRD";"INDEPENDENCIA";"PLAZA";"V";"4";"1";"";"";"";"MADRID";"MADRID";"28001";"1";"RECOLETOS";"4";"SALAMANCA";"441544";"4474675";"40.42065971465086";"-3.6890553146620775";"662 299 923";"";"info@flamencodeleones.es";"/contenido/entidadesYorganismos/Teatros"; 
11083903;"Tablao Flamenco El Lucero";"";"";"";"Metro: Banco de España (linea 2).  Bus: 001, 10, 14, 27, 34, 37, 45, C03.  Bicimad: Estacion 29 (calle del Marques de Cubas, 25).  Aparcamientos: Plaza de las Cortes (46 y 103).";"";"3";"http://www.madrid.es/sites/v/index.jsp?vgnextchannel=bfa48ab43d6bb410VgnVCM100000171f5a0aRCRD&vgnextoid=1b2d976f4f3fe610VgnVCM2000001f4a900aRCRD";"MARQUES DE CUBAS";"CALLE";"V";"25";"";"";"";"";"MADRID";"MADRID";"28014";"3";"CORTES";"1";"CENTRO";"440974";"4474192";"40.41626690688702";"-3.6957342044022425";"918 448 080";"";"contacto@centrolucero.com";"/contenido/entidadesYorganismos/Teatros"; 
11083811;"Tablao Flamenco La Carmela";"";"";"";"Metro: Sol (lineas 1, 2 y 3).  Bus: 002, M1.  Cercanias Renfe: Sol (lineas C3 y C4).  Bicimad: Estaciones 33 (calle Carretas, 8), 52 (plaza de Santa Ana, 10).  Aparcamientos: Plaza de Santa Ana (77); Sevilla (41), calle Sevilla y calle Alcala; Hub de Movilidad Canalejas 360 (1239), calle de Alcala, 17; plaza del Carmen (8); plaza Jacinto Benavente (15).";"";"3";"http://www.madrid.es/sites/v/index.jsp?vgnextchannel=bfa48ab43d6bb410VgnVCM100000171f5a0aRCRD&vgnextoid=f9a7c8897cfee610VgnVCM2000001f4a900aRCRD";"VICTORIA";"CALLE";"V";"4";"";"";"";"";"MADRID";"MADRID";"28012";"6";"SOL";"1";"CENTRO";"440464";"4474201";"40.41630783060771";"-3.701737920263045";"915 238 430";"";"reservas@tablaolacarmela.com";"/contenido/entidadesYorganismos/Teatros"; 
11264373;"Tablao Flamenco La Estacion de los Porches";"";"";"";"Bus: 102, 24.  Bicimad: Estacion 422 (travesia de Palomeras, 7).";"";"3";"http://www.madrid.es/sites/v/index.jsp?vgnextchannel=bfa48ab43d6bb410VgnVCM100000171f5a0aRCRD&vgnextoid=8901450abcbb5710VgnVCM2000001f4a900aRCRD";"TIMOTEO PEREZ RUBIO";"CALLE";"V";"2";"";"";"";"";"MADRID";"MADRID";"28053";"1";"ENTREVIAS";"13";"PUENTE DE VALLECAS";"442946";"4471043";"40.388034703602294";"-3.672208524314873";"654 802 959";"";"info@tablaoflamencolosporches.com";"/contenido/entidadesYorganismos/Teatros"; 
11083826;"Tablao Flamenco La Quimera Plaza Mayor";"";"";"";"Metro: Sol (lineas 1, 2 y 3), Tirso de Molina (linea 1), La Latina (linea 5).  Bus: 31, 50, 65, 17, 002, 18, 23, M1, 35.  Bicimad: Estaciones 32 (plaza de la Provincia, 1), 9 (plaza de San Miguel, 9), 35 (plaza del Cordon).  Cercanias Renfe: Sol (lineas C3 y C4).  Aparcamiento: Plaza Mayor (55).";"";"3";"http://www.madrid.es/sites/v/index.jsp?vgnextchannel=bfa48ab43d6bb410VgnVCM100000171f5a0aRCRD&vgnextoid=b118976f4f3fe610VgnVCM2000001f4a900aRCRD";"CUCHILLEROS";"CALLE";"V";"7";"";"";"";"";"MADRID";"MADRID";"28005";"6";"SOL";"1";"CENTRO";"439935";"4474010";"40.41455139884737";"-3.7079639628064585";"913 569 361";"";"info@tablaolaquimera.com";"/contenido/entidadesYorganismos/Teatros"; 
143436;"Tablao flamenco Las Tablas";"";"";"";"Metro: Plaza de España (lineas 3 y 10), Principe Pio (lineas 6, 10 y Ramal), Santo Domingo (linea 2).  Bus: 138, 25, 39, 46, 62, 75, C2, C1, 148, 3, 74.  Cercanias Renfe: Principe Pio (lineas C1, C7, C10 y Regional).  Bicimad: Estaciones 116 a y b (calle Princesa, 5).  Aparcamientos: Plaza de España (53), plaza de Oriente (32).";"";"3";"http://www.madrid.es/sites/v/index.jsp?vgnextchannel=bfa48ab43d6bb410VgnVCM100000171f5a0aRCRD&vgnextoid=cfb3c8a3d881c010VgnVCM1000000b205a0aRCRD";"ESPAÑA";"PLAZA";"V";"9";"";"";"";"";"MADRID";"MADRID";"28008";"2";"ARGUELLES";"9";"MONCLOA-ARAVACA";"439458";"4474840";"40.42199234070159";"-3.7136613610076252";"915 420 520";"";"info@lastablasmadrid.com";"/contenido/entidadesYorganismos/Teatros"; 
11083893;"Tablao Flamenco Torero";"";"";"";"Metro: Sol (lineas 1, 2 y 3).  Bus: 002, M1, 26, 32, 6, 65.  Cercanias Renfe: Sol (lineas C3 y C4).  Bicimad: Estaciones 34 (plaza de Jacinto Benavente), 33 (calle Carretas, 8), 52 (plaza de Santa Ana, 10).  Aparcamientos: Plaza Jacinto Benavente (15), plaza de Santa Ana (77).";"";"3";"http://www.madrid.es/sites/v/index.jsp?vgnextchannel=bfa48ab43d6bb410VgnVCM100000171f5a0aRCRD&vgnextoid=817a976f4f3fe610VgnVCM2000001f4a900aRCRD";"CRUZ";"CALLE";"V";"26";"";"";"";"";"MADRID";"MADRID";"28012";"6";"SOL";"1";"CENTRO";"440382";"4474047";"40.41491309678971";"-3.7026944132785204";"605 777 959";"";"info@essentialflamenco.com";"/contenido/entidadesYorganismos/Teatros"; 
10187547;"Tablao Flamenco Torres Bermejas";"";"";"";"Metro: Callao (lineas 3 y 5), Gran Via (lineas 1 y 5), Sol (lineas 1, 2 y 3).  Bus: 001, 1, 146, 2, 3, 46, 74, 002.  Cercanias Renfe: Sol (lineas C3 y C4).  Bicimad: Estaciones 210 (Tres Cruces, 7), 211 (Desengaño, 1), 2 (calle Miguel Moya, 1).  Aparcamientos: El Corte Ingles Callao (92), plaza de Callao; Luna-Tudescos (102) calle Tudescos; Luna-Tudescos (14), plaza Santa Maria Soledad Torres Acosta con vuelta a calle Luna); plaza del Carmen (8); el Corte Ingles Preciados (93), calle Preciados.";"";"3";"http://www.madrid.es/sites/v/index.jsp?vgnextchannel=bfa48ab43d6bb410VgnVCM100000171f5a0aRCRD&vgnextoid=8168b096d9d48510VgnVCM2000001f4a900aRCRD";"MESONERO ROMANOS";"CALLE";"V";"11";"";"";"";"";"MADRID";"MADRID";"28013";"6";"SOL";"1";"CENTRO";"440261";"4474600";"40.419889267861706";"-3.7041707075343053";"915 323 322";"";"reservas@torresbermejas.com";"/contenido/entidadesYorganismos/Teatros"; 
2177;"Teatro Alcazar";"";"";"";"Metro: Sevilla (linea 2).  Bus: 46, 150, 5, 52, 15, 20, 51, 53, M1, 002, 9, 001, 1, 146, 2, 3, 74.  Bicimad: Estacion 28 (calle Alcala 27).  Aparcamiento: Sevilla (41), calle Sevilla con calle Alcala; Hub de Movilidad Canalejas 360 (1239), calle de Alcala, 17.";"";"3";"http://www.madrid.es/sites/v/index.jsp?vgnextchannel=bfa48ab43d6bb410VgnVCM100000171f5a0aRCRD&vgnextoid=a52b8c7c0f91f010VgnVCM1000000b205a0aRCRD";"ALCALA";"CALLE";"V";"20";"";"";"";"";"MADRID";"MADRID";"28014";"3";"CORTES";"1";"CENTRO";"440694";"4474365";"40.417801427758604";"-3.699048171807146";"915 320 616";"";"ayuda@gruposmedia.com";"/contenido/entidadesYorganismos/Teatros"; 
2199;"Teatro Alfil";"";"";"";"Metro: Noviciado (linea 2), Callao (lineas 3 y 5)  Bus: 002, 147, 3.  Bicimad: Estaciones 17 (plaza de Carlos Cambronero, 2), 16 (calle San Bernardo, 22), 59 (calle Espiritu Santo, 30), 55 (plaza de San Ildefonso).  Aparcamiento: Luna-Tudescos (14) plaza Santa Maria Soledad Torres Acosta; Luna-Tudescos (102), calle Tudescos.";"";"3";"http://www.madrid.es/sites/v/index.jsp?vgnextchannel=bfa48ab43d6bb410VgnVCM100000171f5a0aRCRD&vgnextoid=a83b8c7c0f91f010VgnVCM1000000b205a0aRCRD";"PEZ";"CALLE";"V";"10";"";"";"";"";"MADRID";"MADRID";"28004";"5";"UNIVERSIDAD";"1";"CENTRO";"440240";"4474963";"40.423153008537106";"-3.7044603063098367";"915 214 541";"";"info@teatroalfil.com";"/contenido/entidadesYorganismos/Teatros"; 
17306;"Teatro Amaya";"";"";"";"Metro: Iglesia (linea 1).  Bus: 16, 5, 61, 3, 37.  Bicimad: Estaciones 125 (calle Fernandez de la Hoz, 29) y 246 (calle Santa Engracia, 87).";"";"3";"http://www.madrid.es/sites/v/index.jsp?vgnextchannel=bfa48ab43d6bb410VgnVCM100000171f5a0aRCRD&vgnextoid=6b4b8c7c0f91f010VgnVCM1000000b205a0aRCRD";"GENERAL MARTINEZ CAMPOS";"PASEO";"V";"9";"";"";"";"";"MADRID";"MADRID";"28010";"4";"ALMAGRO";"7";"CHAMBERI";"440868";"4476288";"40.435137164508355";"-3.6971796085531734";"915 934 005";"";"info@teatroamaya.com";"/contenido/entidadesYorganismos/Teatros"; 
2186;"Teatro Apolo";"";"";"";"Metro: Tirso de Molina (linea 1).  Bus: 26, 32, 6, M1, 002, 50, 65.  Bicimad: Estaciones 44 (calle Meson de Paredes, 35), 34 (plaza de Jacinto Benavente), 43 (calle Lavapies, 34), 52 (plaza de Santa Ana, 10).  Aparcamiento: Garaje Centro (68), calle Relatores, 11.";"";"3";"http://www.madrid.es/sites/v/index.jsp?vgnextchannel=bfa48ab43d6bb410VgnVCM100000171f5a0aRCRD&vgnextoid=7e6d8c7c0f91f010VgnVCM1000000b205a0aRCRD";"TIRSO DE MOLINA";"PLAZA";"V";"1";"";"";"";"";"MADRID";"MADRID";"28012";"2";"EMBAJADORES";"1";"CENTRO";"440323";"4473762";"40.412347852154134";"-3.703362524169017";"914 277 848";"";"atencionalcliente@somproduce.com";"/contenido/entidadesYorganismos/Teatros"; 
7717745;"Teatro Arlequin Gran Via";"";"";"";"Metro: Santo Domingo (linea 2), Callao (lineas 3 y 5).  Bus: 133, 44, 001, 1, 146, 2, 3, 46, 74, 147, 148, 75.  Bicimad: Estaciones 23 (plaza Santo Domingo, 1), 16 (calle Jacometrezo, 22), 2 (calle Miguel Moya, 1).  Aparcamientos: Isabel la Catolica (98), calle de Isabel la Catolica; Luna-Tudescos (102), calle Tudescos.";"";"3";"http://www.madrid.es/sites/v/index.jsp?vgnextchannel=bfa48ab43d6bb410VgnVCM100000171f5a0aRCRD&vgnextoid=f38726c2a9489410VgnVCM2000000c205a0aRCRD";"SAN BERNARDO";"CALLE";"V";"5";"";"";"";"";"MADRID";"MADRID";"28013";"1";"PALACIO";"1";"CENTRO";"439913";"4474730";"40.42103186108598";"-3.708289221399078";"917 580 847";"";"info@teatroarlequingranvia.com";"/contenido/entidadesYorganismos/Teatros"; 
7572916;"Teatro Auditorio Casa de Campo";"Tiene una excelente calidad acustica y visual y es perfecto para la celebracion de conciertos, funciones teatrales, seminarios, convenciones y espectaculos. Dispone de un escenario semicircular, cafeteria y amplias zonas de acceso.";"";"";"Metro: Lago (linea 10), Puerta del angel (linea 6).  Bus: 31, 33, 36, 39, 65.  Aparcamiento: Avenida de Portugal (7). Frente al numero 51.";"";"1";"http://www.madrid.es/sites/v/index.jsp?vgnextchannel=bfa48ab43d6bb410VgnVCM100000171f5a0aRCRD&vgnextoid=c9d5dce7e6a17410VgnVCM2000000c205a0aRCRD";"PRINCIPAL";"AVENIDA";"V";"9";"";"";"";"";"MADRID";"MADRID";"28011";"1";"CASA DE CAMPO";"9";"MONCLOA-ARAVACA";"437121";"4473927";"40.41359310144815";"-3.7411161249274913";"915 787 758";"";"";"/contenido/entidadesYorganismos/Teatros"; 
2178;"Teatro Bellas Artes";"";"";"";"Metro: Banco de España (linea 2).  Bus: 15, 150, 20, 5, 51, 53, 001, 146, 52, 9, 1, 2, 74, 002, 3, 46, 14, 27, 37, 45, C03.  Bicimad: Estaciones 20a (calle Alcala, 49), 28 (calle Alcala, 27).  Aparcamientos: Sevilla (41) (calle Sevilla con calle Alcala); Hub de Movilidad Canalejas 360 (1239), calle de Alcala, 17; plaza del Rey (54).";"";"3";"http://www.madrid.es/sites/v/index.jsp?vgnextchannel=bfa48ab43d6bb410VgnVCM100000171f5a0aRCRD&vgnextoid=e07b8c7c0f91f010VgnVCM1000000b205a0aRCRD";"MARQUES DE CASA RIERA";"CALLE";"V";"2";"";"";"";"";"MADRID";"MADRID";"28014";"3";"CORTES";"1";"CENTRO";"440918";"4474423";"40.41833969537658";"-3.696409630244443";"915 324 437";"915 223 181";"jefedesala@pentacion.com";"/contenido/entidadesYorganismos/Teatros"; 
8176468;"Teatro Calderon";"";"";"";"Metro: Tirso de Molina (linea 1), Sol (lineas 1, 2 y 3).  Bus: 002, M1, 26, 32, 6, 65, 50.  Cercanias Renfe: Sol (lineas C3 y C4).  Bicimad: Estacion 34 (plaza Jacinto Benavente).  Aparcamiento: Plaza Jacinto Benavente (15); Garaje Centro (68), calle Relatores, 11.";"";"3";"http://www.madrid.es/sites/v/index.jsp?vgnextchannel=bfa48ab43d6bb410VgnVCM100000171f5a0aRCRD&vgnextoid=aecf08cee9e5f410VgnVCM1000000b205a0aRCRD";"ATOCHA";"CALLE";"V";"18";"";"";"";"";"MADRID";"MADRID";"28012";"2";"EMBAJADORES";"1";"CENTRO";"440326";"4473946";"40.41400427798526";"-3.7033440587300324";"914 294 085";"";"atencionalcliente@somproduce.com";"/contenido/entidadesYorganismos/Teatros"; 
10511563;"Teatro Capitol Gran Via";"";"";"";"Metro: Callao (lineas 3 y 5), Santo Domingo (linea 2).  Bus: 148, 147, 146, 75, 001, 1, 2, 3, 46, 74, 133, 44.  Bicimad: Estaciones 22 (calle Jacometrezo, 3), 23 (plaza de Santo Domingo, 1), 2 (calle Miguel Moya, 1).  Aparcamientos: Luna - Tudescos (102), calle de los Tudescos; El Corte Ingles Callao (92), plaza de Callao; Luna - Tudescos (14), plaza Santa Maria Soledad Torres Acosta con vuelta a calle Luna).";"";"3";"http://www.madrid.es/sites/v/index.jsp?vgnextchannel=bfa48ab43d6bb410VgnVCM100000171f5a0aRCRD&vgnextoid=6fc8459f66cee510VgnVCM2000001f4a900aRCRD";"GRAN VIA";"CALLE";"V";"41";"";"";"";"";"MADRID";"MADRID";"28013";"1";"PALACIO";"1";"CENTRO";"440057";"4474664";"40.42044662928379";"-3.706582132732834";"915 222 229";"";"info@capitolgranvia.com";"/contenido/entidadesYorganismos/Teatros"; 
10511914;"Teatro Centro del Actor";"";"";"";"Metro: Carabanchel (linea 5).  Bus: 35.";"";"3";"http://www.madrid.es/sites/v/index.jsp?vgnextchannel=bfa48ab43d6bb410VgnVCM100000171f5a0aRCRD&vgnextoid=5942fef1bacee510VgnVCM1000001d4a900aRCRD";"DOLORES ARMENGOT";"CALLE";"V";"22";"BAJA";"";"";"";"MADRID";"MADRID";"28025";"4";"VISTA ALEGRE";"11";"CARABANCHEL";"436934";"4470851";"40.38586748767665";"-3.743020950442359";"912 977 090";"";"info@centrodelactor.com";"/contenido/entidadesYorganismos/Teatros"; 
184955;"Teatro Circo Price";"Toma su nombre del que existio, durante casi un siglo, en el Paseo de Recoletos. A comienzos del 2000, el Ayuntamiento recupero el antiguo edificio industrial de una fabrica, de estilo neomudejar, para ubicar el nuevo Teatro Circo Price que desde 2007 ofrece una variada programacion de circo, musica y teatro.";"Taquilla   De martes a viernes de 17:30 a 20:30 horas. Los fines de semana la taquilla abre dos horas antes del inicio de la sesion (consultar matinalees)";"Espacios:   Sala principal Pista circular y escenario Sala Parish 2 salas de exposiciones (sala Malabar y sala Trapecio   Aparcamiento propio y vigilado, entrada por la calle Juan Sebastian Elcano, 25, de uso exclusivo para los espectadores y con horario limitado sujeto al espectaculo.";"Metro: Embajadores (linea 3) , Lavapies (linea 3), Estacion del Arte (Atocha) (linea 1)  Bus: 119, 27, 34, 36, 41, C03, C2, C1  Bicimad: Estacion 49 (Ronda de Atocha, 34) / Estacion 50 (calle Santa Isabel, 57)  Renfe: Embajadores  Aparcamiento: Sanchez Bustillo (37), calle Sanchez Bustillo";"";"1";"http://www.madrid.es/sites/v/index.jsp?vgnextchannel=bfa48ab43d6bb410VgnVCM100000171f5a0aRCRD&vgnextoid=432257258ae5d010VgnVCM1000000b205a0aRCRD";"ATOCHA";"RONDA";"V";"35";"";"";"";"";"MADRID";"MADRID";"28012";"6";"PALOS DE LA FRONTERA";"2";"ARGANZUELA";"440722";"4473051";"40.40596936645757";"-3.698589986849812";"913 184 700";"";"";"/contenido/entidadesYorganismos/Teatros"; 
10511809;"Teatro Coliseum";"";"";"";"Metro: Plaza de España (lineas 3 y 10), Noviciado (linea 2).  Bus: 001, 1, 133, 2, 44, 3, 46, 74, 25, 148, 75, 39, 138, C2, 002.  Bicimad: Estaciones 116b (plaza de España).  Aparcamientos: Plaza de España (53), plaza Montenses (50).";"";"3";"http://www.madrid.es/sites/v/index.jsp?vgnextchannel=bfa48ab43d6bb410VgnVCM100000171f5a0aRCRD&vgnextoid=c9e5459f66cee510VgnVCM2000001f4a900aRCRD";"GRAN VIA";"CALLE";"V";"78";"";"";"";"";"MADRID";"MADRID";"28013";"5";"UNIVERSIDAD";"1";"CENTRO";"439747";"4474976";"40.4232376492877";"-3.7102689441860126";"922 888 788";"";"ayuda@stage-entertainment.com";"/contenido/entidadesYorganismos/Teatros"; 
11742400;"Teatro Corral de Cervantes";"";"";"";"Metro: Legazpi (lineas 3 y 6).  Bus: 148, 18, 6, 78, 62.  Bicimad: Estaciones 165 (paseo de la Chopera, 14), 267 (paseo de la Chopera, 33).";"";"3";"http://www.madrid.es/sites/v/index.jsp?vgnextchannel=bfa48ab43d6bb410VgnVCM100000171f5a0aRCRD&vgnextoid=d3296ece16e52810VgnVCM1000001d4a900aRCRD";"CHOPERA";"PASEO";"V";"10";"";"";"";"";"MADRID";"MADRID";"28045";"3";"CHOPERA";"2";"ARGANZUELA";"440676";"4471620";"40.39307289237465";"-3.699005654074825";"";"";"info@corralcervantes.com";"/contenido/entidadesYorganismos/Teatros"; 
2207;"Teatro de la Abadia";"";"";"";"Metro: Quevedo (linea 2), Canal (lineas 2 y 7) Islas Filipinas (linea 7).  Bus: 16, 61, 2.  Bicimad: Estaciones 245 (calle Galileo, 63), 127 (calle Fernando el Catolico, 19).";"";"3";"http://www.madrid.es/sites/v/index.jsp?vgnextchannel=bfa48ab43d6bb410VgnVCM100000171f5a0aRCRD&vgnextoid=efcb8c7c0f91f010VgnVCM1000000b205a0aRCRD";"FERNANDEZ DE LOS RIOS";"CALLE";"V";"42";"";"";"";"";"MADRID";"MADRID";"28015";"2";"ARAPILES";"7";"CHAMBERI";"439848";"4476306";"40.435223017244546";"-3.7092064811910204";"914 481 627";"";"taquilla@teatroabadia.com";"/contenido/entidadesYorganismos/Teatros"; 
2193;"Teatro de la Comedia. Compañia Nacional de Teatro Clasico";"";"";"";"Metro: Sevilla (linea 2), Sol (lineas 1, 2, y 3).  Bus: 002, M1, 51.  Cercanias Renfe: Sol (lineas C3 y C4).  Bicimad: Estaciones 52 (plaza de Santa Ana, 10), 33 (calle Carretas, 8).  Aparcamiento: Plaza de Santa Ana (77).";"";"3";"http://www.madrid.es/sites/v/index.jsp?vgnextchannel=bfa48ab43d6bb410VgnVCM100000171f5a0aRCRD&vgnextoid=e2eb8c7c0f91f010VgnVCM1000000b205a0aRCRD";"PRINCIPE";"CALLE";"V";"14";"";"";"";"";"MADRID";"MADRID";"28012";"3";"CORTES";"1";"CENTRO";"440577";"4474129";"40.41566852368688";"-3.7004049132099373";"915 327 927";"";"atencionespectador.cntc@inaem.cultura.gob.es";"/contenido/entidadesYorganismos/Teatros"; 
10511901;"Teatro de la Escuela";"";"";"";"Metro: Tribunal (lineas 1 y 10).  Bus: 002.  Bicimad: Estacion 11 (calle San Andres, 18), estacion 59 (Calle Espiritu Santo, 30).  Aparcamientos: Barcelo (69), calle Barcelo sin numero; Arquitecto Ribera (Barcelo) (17), calle Barcelo, 2.";"";"3";"http://www.madrid.es/sites/v/index.jsp?vgnextchannel=bfa48ab43d6bb410VgnVCM100000171f5a0aRCRD&vgnextoid=5471fef1bacee510VgnVCM1000001d4a900aRCRD";"PALMA";"CALLE";"V";"18";"";"";"";"";"MADRID";"MADRID";"28004";"5";"UNIVERSIDAD";"1";"CENTRO";"440361";"4475309";"40.42628172562985";"-3.7030590988558933";"912 984 115";"";"info@escuelamendezleite.com";"/contenido/entidadesYorganismos/Teatros"; 
2194;"Teatro de la Zarzuela";"";"";"";"Metro: Sevilla (linea 2), Banco de España (linea 2).  Bus: 53, 15, 20, 150, 5, 51, 001, 146, 52, 9, 002, 1, 2, 3, 46, 74.  Bicimad: Estaciones 28 (calle Alcala, 27) y 29 (calle de Marques de Cubas, 25), 20a (calle Alcala, 49).  Aparcamientos: Cortes (46), plaza de las Cortes; plaza de las Cortes (103); Sevilla (41) calle Sevilla y calle Alcala; Hub de Movilidad Canalejas 360 (1239), calle de Alcala, 17.";"";"3";"http://www.madrid.es/sites/v/index.jsp?vgnextchannel=bfa48ab43d6bb410VgnVCM100000171f5a0aRCRD&vgnextoid=e5fb8c7c0f91f010VgnVCM1000000b205a0aRCRD";"JOVELLANOS";"CALLE";"V";"4";"";"";"";"";"MADRID";"MADRID";"28014";"3";"CORTES";"1";"CENTRO";"440879";"4474296";"40.41719654959032";"-3.6968562410770316";"915 245 400";"";"abonostaquillas.tz@inaem.mcu.es";"/contenido/entidadesYorganismos/Teatros"; 
10511805;"Teatro de las Aguas";"";"";"";"Metro: La Latina (linea 5).  Bus: 60, 148, 3.  Bicimad: Estacion 38 (carrera de San Francisco, 1), estacion 37 (plaza de San Francisco, 5).  Aparcamientos: Mercado de la Cebada (501), plaza de la Cebada sin numero; La Latina (86), calle de Toledo.";"";"3";"http://www.madrid.es/sites/v/index.jsp?vgnextchannel=bfa48ab43d6bb410VgnVCM100000171f5a0aRCRD&vgnextoid=9ce4459f66cee510VgnVCM2000001f4a900aRCRD";"AGUAS";"CALLE";"V";"8";"";"";"";"";"MADRID";"MADRID";"28005";"1";"PALACIO";"1";"CENTRO";"439569";"4473603";"40.41086121309178";"-3.712230923915896";"914 259 329";"";"info@teatrodelasaguas.com";"/contenido/entidadesYorganismos/Teatros"; 
7239548;"Teatro del Barrio";"";"";"";"Metro: Lavapies (linea 3), Anton Martin (linea 1).  Bus: M1, 26, 32, 6.  Bicimad: Estaciones 42 (calle Atocha, 95) y 53 (calle Valencia, 1).  Aparcamiento: Garaje Amparo (75) calle Amapero.";"";"3";"http://www.madrid.es/sites/v/index.jsp?vgnextchannel=bfa48ab43d6bb410VgnVCM100000171f5a0aRCRD&vgnextoid=8891c0a221f23410VgnVCM1000000b205a0aRCRD";"ZURITA";"CALLE";"V";"20";"";"";"";"";"MADRID";"MADRID";"28012";"2";"EMBAJADORES";"1";"CENTRO";"440681";"4473464";"40.40968091147868";"-3.6991127577598806";"910 843 692";"";"info@teatrodelbarrio.com";"/contenido/entidadesYorganismos/Teatros"; 
17334;"Teatro EDP Gran Via";"";"";"";"Metro: Santo Domingo (linea 2), Plaza de España (lineas 3 y 10).  Bus: 148, 3, 46, 74, 75, 133, 44, 147, 001, 1, 2, 25, 146.  Bicimad: Estaciones 16 (calle San Bernardo, 22), 116b (calle Princesa, 5), 23 (plaza de Santo Domingo, 1).  Aparcamientos: Isabel la Catolica (98) calle Isabel la Catolica; Plaza Mostenses (50).";"";"3";"http://www.madrid.es/sites/v/index.jsp?vgnextchannel=bfa48ab43d6bb410VgnVCM100000171f5a0aRCRD&vgnextoid=e69b8c7c0f91f010VgnVCM1000000b205a0aRCRD";"GRAN VIA";"CALLE";"V";"66";"";"";"";"";"MADRID";"MADRID";"28013";"5";"UNIVERSIDAD";"1";"CENTRO";"439858";"4474883";"40.422413433319086";"-3.7089446226591725";"915 415 569";"";"info@gruposmedia.es";"/contenido/entidadesYorganismos/Teatros"; 
2190;"Teatro Español";"La historia del Teatro Español de Madrid comienza el 21 de septiembre de 1583,  momento en el que tiene lugar su primera representacion, y continua hasta el dia de hoy, convirtiendose asi en el teatro mas antiguo del mundo en cuanto a representacion continuada se refiere. Acercarse al Teatro Español en la actualidad es entrar en un edificio unico en cuanto a su historia, vida, anecdotas y actualidad. Entre sus espacios destacamos: La Sala Principal con 735 localidades de perfecta visibilidad, dispuestas en tres pisos con una prodigiosa acustica. En sus tablas vieron por primera vez la luz las obras de Cervantes, Lope de Vega, Tirso de Molina, Calderon, Duque de Rivas, Zorrilla, Perez Galdos, Unamuno, Valle-Inclan, Benavente, los Machado, Garcia Lorca, Mihura o Buero Vallejo, entre otros. La Sala Margarita Xirgu, situada en el antiguo Cafe del Principe, se convirtio en 2006 en sala de teatro de unas 110 localidades, que varian segun la disposicion de las gradas, pudiendo adoptar distintas configuraciones: una, dos, tres o incluso a cuatro bandas. Otros espacios con encanto del Teatro son: El Salon de Te, el Salon Tirso de Molina, el Parnasillo y el espacio Andrea D&amp;acute;Odorico.";"";"La Sala Principal cuenta con 735 localidades, dispuestas en tres pisos con una prodigiosa acustica. En sus tablas vieron por primera vez la luz las obras de Lope de Vega, Tirso de Molina, Calderon, Duque de Rivas, Zorrilla, Perez Galdos, Unamuno, Valle-Inclan, Benavente, los Machado, Garcia Lorca, Mihura o Buero Vallejo, entre otros. La Sala Margarita Xirgu, situada en el antiguo Cafe del Principe, se convirtio en 2006 en sala de teatro de unas 110 localidades, que varian segun la disposicion de las gradas, pudiendo adoptar distintas configuraciones: una, dos, tres o incluso a cuatro bandas. El espacio Andrea D&amp;acute;Odorico, situado encima de la sala Margarita Xirgu, es una sala con infinidad de usos desde ruedas de prensa, charlas, encuentros a exposiciones.   El Salon de Te, donde existe un &amp;ldquo;reloj-ascensor&amp;rdquo; de principios de siglo y es utilizado para realizar actos institucionales. En otro tiempo fue el verdadero ambigu del Teatro Español. Es una sala del siglo XIX, obra de Juan de Villanueva.  El Parnasillo, un lugar especialmente recordado porque en el los dramaturgos se reunian con la compañia para hacer la primera lectura de la obra. En 1929 se decoro con una valiosa coleccion de retratos de artistas y literatos, unica en su genero, realizada por el pintor Jose Sanchez Pescador. El Salon Tirso de Molina, que en su origen fue el saloncito privado donde los primeros actores y actrices recibian a sus allegados,  es un espacio de gran belleza por su caracter neoclasico, obra de Juan de Villanueva. Esta situado en la segunda planta del Teatro Español y todos sus balcones miran a la Plaza Santa Ana.";"Metro: Sevilla (linea 2), Sol (lineas 1, 2, 3)  Bus: 002, M1, SE712, 26, 32, 6  Bicimad: Estacion 52 (Plaza Santa Ana, 10 / Estacion 1 a y b (Puerta del Sol)  Renfe: Sol  Aparcamiento: Plaza de Santa Ana (77)";"Entradas en taquillas y Venta de entradas. Sistema de sobretitulado para personas con discapacidad auditiva. Sistema de audiodescripcion para personas con discapacidad visual.";"1,6";"http://www.madrid.es/sites/v/index.jsp?vgnextchannel=bfa48ab43d6bb410VgnVCM100000171f5a0aRCRD&vgnextoid=6d3ce3914381c010VgnVCM1000000b205a0aRCRD";"PRINCIPE";"CALLE";"V";"25";"";"";"";"";"MADRID";"MADRID";"28012";"3";"CORTES";"1";"CENTRO";"440597";"4474036";"40.414828532240946";"-3.700164949543688";"913 601 484 (taquilla) / 914 520 472 (centralita)";"";"";"/contenido/entidadesYorganismos/Teatros"; 
10511854;"Teatro Estudio 2 Manuel Galiana";"";"";"";"Metro: Embajadores (linea 3), Acacias (linea 5).  Bus: 148, 60, 78, 116, 118, 119, 34, 36.  Cercanias Renfe: Embajadores (linea C5).  Bicimad: Estaciones 47 (glorieta de Embajadores, 6), 48 (glorieta de Embajadores, 2).";"";"3";"http://www.madrid.es/sites/v/index.jsp?vgnextchannel=bfa48ab43d6bb410VgnVCM100000171f5a0aRCRD&vgnextoid=0e1afca35ccee510VgnVCM2000001f4a900aRCRD";"MORATINES";"CALLE";"V";"11";"";"";"";"";"MADRID";"MADRID";"28005";"2";"ACACIAS";"2";"ARGANZUELA";"440374";"4472749";"40.40322240916376";"-3.702664395307727";"639 169 158";"";"cuentame@martesteatro.com";"/contenido/entidadesYorganismos/Teatros"; 
2181;"Teatro Figaro - Adolfo Marsillach";"";"";"";"Metro: Tirso de Molina (linea 1), Sol (lineas 1, 2 y 3).  Bus: 002, M1, 26, 32, 6, 65, 50.  Cercanias Renfe: Sol (lienas C3, C4, C4a y Regional).  Bicimad: Estaciones 34 (plaza de Jacinto Benavente).  Aparcamientos: Plaza Jacinto Benavente (15), Garaje Centro (68) calle Relatores, 11.";"";"3";"http://www.madrid.es/sites/v/index.jsp?vgnextchannel=bfa48ab43d6bb410VgnVCM100000171f5a0aRCRD&vgnextoid=715c8c7c0f91f010VgnVCM1000000b205a0aRCRD";"DOCTOR CORTEZO";"CALLE";"V";"5";"";"";"";"";"MADRID";"MADRID";"28012";"2";"EMBAJADORES";"1";"CENTRO";"440298";"4473886";"40.41345712623912";"-3.7036750985515776";"913 600 829";"";"";"/contenido/entidadesYorganismos/Teatros"; 
10038751;"Teatro Flamenco Madrid";"";"";"";"Metro: Noviciado (linea 2), Callao (lineas 3 y 5)  Bus: 002, 147, 3.  Bicimad: Estaciones 17 (plaza de Carlos Cambronero, 2), 16 (calle San Bernardo, 22), 59 (calle Espiritu Santo, 30), 55 (plaza de San Ildefonso).  Aparcamiento: Luna-Tudescos (14) plaza Santa Maria Soledad Torres Acosta; Luna-Tudescos (102), calle Tudescos.";"";"3";"http://www.madrid.es/sites/v/index.jsp?vgnextchannel=bfa48ab43d6bb410VgnVCM100000171f5a0aRCRD&vgnextoid=7420d852ee904510VgnVCM2000001f4a900aRCRD";"PEZ";"CALLE";"V";"10";"";"";"";"";"MADRID";"MADRID";"28004";"5";"UNIVERSIDAD";"1";"CENTRO";"440240";"4474963";"40.423153008537106";"-3.7044603063098367";"911 592 005";"";"reservas@teatroflamencomadrid.com";"/contenido/entidadesYorganismos/Teatros"; 
10511730;"Teatro Grada Magica";"";"";"";"Metro: Puente de Vallecas (linea 1).  Bus: 113, 141, 8.";"";"3";"http://www.madrid.es/sites/v/index.jsp?vgnextchannel=bfa48ab43d6bb410VgnVCM100000171f5a0aRCRD&vgnextoid=4b90459f66cee510VgnVCM2000001f4a900aRCRD";"EMILIO ORTUÑO";"CALLE";"V";"20";"";"";"";"";"MADRID";"MADRID";"28038";"6";"NUMANCIA";"13";"PUENTE DE VALLECAS";"443466";"4472226";"40.39872198573073";"-3.666187573469471";"910 231 013";"";"info@gradamagica.com";"/contenido/entidadesYorganismos/Teatros"; 
2198;"Teatro Infanta Isabel";"";"";"";"Metro: Chueca (linea 5), Banco de España (linea 2).  Bus: 37.  Cercanias Renfe: Recoletos (lineas C1, C2, C7 y C10).  Bicimad: Estaciones 19 (calle Prim, 2), 58 (calle Augusto Figueroa, 33), 26 (plaza de las Salesas, 7).  Aparcamientos: Gravina 21 (89); Garaje Piamonte (96) calle Piamonte; Mercado San Anton (94), Libertad.";"";"3";"http://www.madrid.es/sites/v/index.jsp?vgnextchannel=bfa48ab43d6bb410VgnVCM100000171f5a0aRCRD&vgnextoid=777c8c7c0f91f010VgnVCM1000000b205a0aRCRD";"BARQUILLO";"CALLE";"V";"24";"";"";"";"";"MADRID";"MADRID";"28004";"4";"JUSTICIA";"1";"CENTRO";"440993";"4474853";"40.42222446320089";"-3.695574910195452";"915 210 212";"";"info@teatroinfantaisabel.es";"/contenido/entidadesYorganismos/Teatros"; 
99245;"Teatro Karpas";"";"";"";"Metro: Anton Martin (linea 1), Lavapies (linea 3).  Bus: 26, 32, 6.  Bicimad: Estacion 42 (calle Santa Isabel, 32).";"";"3";"http://www.madrid.es/sites/v/index.jsp?vgnextchannel=bfa48ab43d6bb410VgnVCM100000171f5a0aRCRD&vgnextoid=7a8c8c7c0f91f010VgnVCM1000000b205a0aRCRD";"SANTA ISABEL";"CALLE";"V";"19";"";"";"";"";"MADRID";"MADRID";"28012";"2";"EMBAJADORES";"1";"CENTRO";"440803";"4473550";"40.41046636580597";"-3.6976884322997865";"915 396 236";"";"info@karpasteatro.com";"/contenido/entidadesYorganismos/Teatros"; 
10511853;"Teatro La Encina";"";"";"";"Metro: Acacias (linea 5), Embajadores (linea 3).  Bus: 148, 60, 78, 116, 118.  Cercanias Renfe: Embajadores (linea C5).  Bicimad: Estacion 47 (glorieta de Embajadores, 6).";"";"3";"http://www.madrid.es/sites/v/index.jsp?vgnextchannel=bfa48ab43d6bb410VgnVCM100000171f5a0aRCRD&vgnextoid=6ae9fca35ccee510VgnVCM2000001f4a900aRCRD";"ERCILLA";"CALLE";"V";"15";"";"";"";"";"MADRID";"MADRID";"28005";"2";"ACACIAS";"2";"ARGANZUELA";"440362";"4472716";"40.40292081826184";"-3.7028072697686376";"910 567 002";"";"info@laencinateatro.com";"/contenido/entidadesYorganismos/Teatros"; 
2182;"Teatro la Latina";"";"";"";"Metro: La Latina (Linea 5).  Bus: 002, 17, 18, 23, 35, 60, M1.  Bicimad: Estacion 39 (plaza de la Cebada, 16).  Aparcamiento: Mercado plaza de la Cebada (501).";"";"3";"http://www.madrid.es/sites/v/index.jsp?vgnextchannel=bfa48ab43d6bb410VgnVCM100000171f5a0aRCRD&vgnextoid=7d9c8c7c0f91f010VgnVCM1000000b205a0aRCRD";"CEBADA";"PLAZA";"V";"2";"";"";"";"";"MADRID";"MADRID";"28005";"1";"PALACIO";"1";"CENTRO";"439863";"4473661";"40.411402834899235";"-3.7087714263674325";"913 652 835";"";"";"/contenido/entidadesYorganismos/Teatros"; 
11742377;"Teatro La Sala";"";"";"";"Metro: Embajadores (linea 3).  Bus: 148, 60, 78, 59, 6, 85, 55.  Cercanias Renfe: Embajadores (linea C5).  Bicimad: Estacion 121 (paseo Santa Maria de la Cabeza, 58).";"";"3";"http://www.madrid.es/sites/v/index.jsp?vgnextchannel=bfa48ab43d6bb410VgnVCM100000171f5a0aRCRD&vgnextoid=a4642a5e30e52810VgnVCM1000001d4a900aRCRD";"PALOS DE LA FRONTERA";"CALLE";"V";"3";"";"";"";"";"MADRID";"MADRID";"28012";"6";"PALOS DE LA FRONTERA";"2";"ARGANZUELA";"440686";"4472732";"40.40309417359402";"-3.6989842711202656";"691 122 391";"";"info@lasala.madrid";"/contenido/entidadesYorganismos/Teatros"; 
79864;"Teatro Lagrada";"";"";"";"Metro: Embajadores (linea 3), Acacias (linea 5).  Bus: 148, 60, 78.  Cercanias Renfe: Embajadores (linea C5).  Bicimad: Estacion 47 (glorieta de Embajadores, 6), 170 (paseo de la Esperanza, 21).";"";"3";"http://www.madrid.es/sites/v/index.jsp?vgnextchannel=bfa48ab43d6bb410VgnVCM100000171f5a0aRCRD&vgnextoid=70bc8c7c0f91f010VgnVCM1000000b205a0aRCRD";"ERCILLA";"CALLE";"V";"20";"";"";"";"";"MADRID";"MADRID";"28005";"2";"ACACIAS";"2";"ARGANZUELA";"440356";"4472691";"40.40269686624398";"-3.702879182971478";"915 179 698";"";"programacion@teatrolagrada.com";"/contenido/entidadesYorganismos/Teatros"; 
2208;"Teatro Lara";"";"";"";"Metro: Callao (lineas 3 y 5), Santo Domingo (linea 2), Gran Via (lineas 1 y 5).  Bus: 002, 001, 1, 146, 2, 46, 74.  Bicimad: Estaciones 17 (plaza de Carlos Carbonero, 2), 2 (calle Miguel Moya, 1), 211 (calle Desengaño, 1).  Aparcamientos: Luna-Tudescos (14), plaza Santa Maria Soledad Torres Acosta con vuelta a calle Luna); Barco 1 (88), calle Barco.";"";"3";"http://www.madrid.es/sites/v/index.jsp?vgnextchannel=bfa48ab43d6bb410VgnVCM100000171f5a0aRCRD&vgnextoid=73cc8c7c0f91f010VgnVCM1000000b205a0aRCRD";"CORREDERA BAJA DE SAN PABLO";"CALLE";"V";"15";"";"";"";"";"MADRID";"MADRID";"28004";"5";"UNIVERSIDAD";"1";"CENTRO";"440241";"4474844";"40.42208992840841";"-3.7044330667766356";"";"";"info@teatrolara.org";"/contenido/entidadesYorganismos/Teatros"; 
17338;"Teatro Lope de Vega";"";"";"";"Metro: Santo Domingo (linea 2), Plaza de España (linea 3 y 10), Callao (lineas 3 y 5).  Bus: 147, 3, 133, 001, 1, 148, 2, 44, 46, 74, 75, 146.  Bicimad: Estaciones 16 (calle San Bernardo, 22), 23 (plaza de Santo Domingo, 1), 116b (calle Princesa, 5).  Aparcamientos: Isabel la Catolica (98) calle de Isabel la Catolica; Mostenses (50), plaza Mostenses y calle Ricardo Leon.";"";"3";"http://www.madrid.es/sites/v/index.jsp?vgnextchannel=bfa48ab43d6bb410VgnVCM100000171f5a0aRCRD&vgnextoid=79ec8c7c0f91f010VgnVCM1000000b205a0aRCRD";"GRAN VIA";"CALLE";"V";"57";"";"";"";"";"MADRID";"MADRID";"28013";"1";"PALACIO";"1";"CENTRO";"439865";"4474827";"40.42190319947077";"-3.7088650025651506";"902 888 788";"";"ayuda@stage-entertainment.com";"/contenido/entidadesYorganismos/Teatros"; 
174142;"Teatro Maravillas Melendez";"";"";"";"Metro: Bilbao (lineas 1 y 4).  Bus: 147, 21, C03, 149, 3, 37, 40.  Bicimad: Estacion 4 (calle Manuela malasaña, 5), 5 (calle Fuencarral, 108).  Aparcamiento: Fuencarral (27), calle Fuencarral, 111 (entre 111 y 121).";"";"3";"http://www.madrid.es/sites/v/index.jsp?vgnextchannel=bfa48ab43d6bb410VgnVCM100000171f5a0aRCRD&vgnextoid=f8608c89dd91f010VgnVCM2000000c205a0aRCRD";"MANUELA MALASA&amp;Ntilde;A";"CALLE";"V";"6";"";"";"";"";"MADRID";"MADRID";"28004";"5";"UNIVERSIDAD";"1";"CENTRO";"440360";"4475576";"40.42868512425655";"-3.703093557594087";"914 468 405";"";"info@teatromaravillas.com";"/contenido/entidadesYorganismos/Teatros"; 
2191;"Teatro Maria Guerrero.";"";"";"";"Metro: Colon (linea 4), Banco de España (linea 2), Chueca (linea 5).  Bus: 37, 14, 150, 27, 45, 5, 53, C03.  Cercanias Renfe: Recoletos (lineas C1, C2, C7 y C10).  Bicimad: Estaciones 26 (plaza de las Salesas, 7), 19 (calle Prim, 2), 10 (calle Marques de la Ensenada, 16).  Aparcamientos: Garaje Piamonte (96), calle Piamont; Villa de Paris (67), plaza Villa de Paris.";"";"3";"http://www.madrid.es/sites/v/index.jsp?vgnextchannel=bfa48ab43d6bb410VgnVCM100000171f5a0aRCRD&vgnextoid=3cfc8c7c0f91f010VgnVCM1000000b205a0aRCRD";"TAMAYO Y BAUS";"CALLE";"V";"4";"";"";"";"";"MADRID";"MADRID";"28004";"4";"JUSTICIA";"1";"CENTRO";"441207";"4474927";"40.42289798776825";"-3.693053196862537";"913 102 949";"";"cdn@inaem.cultura.gob.es";"/contenido/entidadesYorganismos/Teatros"; 
2184;"Teatro Marquina";"";"";"";"Metro: Banco de España (linea 2), Chueca (linea 5), Colon (linea 4).  Bus: 37, 14, 150, 27, 45, 5, 53, C03, 001, 1, 146, 15, 2, 20, 203, 51, 52, 74, 9.  Cercanias Renfe: Recoletos (lineas C1, C2, C7 y C10).  Bicimad: Estaciones 19 (calle Prim, 2), 26 (plaza de las Salesas, 7).  Aparcamientos: Garaje Piamonte (96), calle Piamonte; Gravina 21 (8), calle Gravina.";"";"3";"http://www.madrid.es/sites/v/index.jsp?vgnextchannel=bfa48ab43d6bb410VgnVCM100000171f5a0aRCRD&vgnextoid=fe0d8c7c0f91f010VgnVCM1000000b205a0aRCRD";"PRIM";"CALLE";"V";"11";"";"";"";"";"MADRID";"MADRID";"28004";"4";"JUSTICIA";"1";"CENTRO";"441148";"4474824";"40.421966872256846";"-3.693734410007287";"915 313 186";"";"taquilla@teatromarquina.es";"/contenido/entidadesYorganismos/Teatros"; 
10242463;"Teatro Monumental";"";"";"";"Metro: Anton Martin (linea 1).  Bus: 26, 32, 6, 002, M1.  Bicimad: Estacion 41 (calle Atocha, 54).";"";"3";"http://www.madrid.es/sites/v/index.jsp?vgnextchannel=bfa48ab43d6bb410VgnVCM100000171f5a0aRCRD&vgnextoid=40388b6bab5b9510VgnVCM1000001d4a900aRCRD";"ATOCHA";"CALLE";"V";"65";"";"";"";"";"MADRID";"MADRID";"28012";"3";"CORTES";"1";"CENTRO";"440680";"4473775";"40.41248873703834";"-3.699161734460963";"914 291 281";"";"infopublico.orquestaycoro@rtve.es";"/contenido/entidadesYorganismos/Teatros"; 
11466205;"Teatro Multiespacio La Strada";"";"";"";"Metro: Quevedo (linea 2), Canal (lineas 2 y 7).  Bus: 146, 61, 149, 37   Bicimad :   Estaciones 200 (glorieta de Quevedo, 5), 127 (calle Fernando el Catolico, 19).";"";"3";"http://www.madrid.es/sites/v/index.jsp?vgnextchannel=bfa48ab43d6bb410VgnVCM100000171f5a0aRCRD&vgnextoid=10f87509ab8eb710VgnVCM1000001d4a900aRCRD";"MAGALLANES";"CALLE";"V";"23";"";"";"";"";"MADRID";"MADRID";"28015";"2";"ARAPILES";"7";"CHAMBERI";"440141";"4476318";"40.435354235764464";"-3.705754037741118";"914 464 849";"";"multiespaciolastrada@hotmail.com";"/contenido/entidadesYorganismos/Teatros"; 
4077;"Teatro Municipal de Titeres. Parque de El Retiro";"Dentro del parque de El Retiro, muy cerca de la entrada desde la plaza de la Independencia, donde se encuentra la Puerta de Alcala, esta el Teatro de Titeres, toda una institucion para el publico infantil madrileño.  Este teatro permanente ofrece representaciones, normalmente, los sabados y domingos en diferentes horarios segun la climatologia de cada epoca del año y esta dedicado el mundo del titere y la marioneta.";"";"";"Metro: Retiro (linea 2).  Bus: 1, 146, 15, 19, 2, 20, 51, 52, 74, 9, 28.  Bicimad: Estacion 60 (plaza de la Independencia, 6).  Aparcamiento: Serrano III (40), calle Serrano entre Jorge Juan y plaza de la Independencia.";"";"1";"http://www.madrid.es/sites/v/index.jsp?vgnextchannel=bfa48ab43d6bb410VgnVCM100000171f5a0aRCRD&vgnextoid=784d8c7c0f91f010VgnVCM1000000b205a0aRCRD";"MeXICO";"AVENIDA";"V";"4";"";"";"";"Parque de El Retiro. Entrada por Puerta de la Independencia";"MADRID";"MADRID";"28009";"";"LOS JERoNIMOS";"";"RETIRO";"441748";"4474466";"40.41878362561595";"-3.6866519471003647";"";"";"";"/contenido/entidadesYorganismos/Teatros"; 
10890410;"Teatro Municipal de Vallecas";"Para la construccion del teatro se ha remodelado el antiguo salon de actos de la Biblioteca Gerardo Diego. Cuenta con cien butacas y se especializa en la programacion de teatro y de cine. Alberga la escuela de teatro de Vallecas. Dentro de su programacion, se ha previsto que se celebren tres representaciones teatrales y una proyeccion cinematografica al mes, en sabado, completando asi la oferta los centros culturales del distrito, cuyas actividades se convocan los viernes.";"Para atencion presencial, pedir cita en el telefono de contacto.  Horario habitual: lunes a viernes, 17 a 21 horas. Sabados, de 10 a 14 horas.";"El aforo es de 94 butacas mas 2 de movilidad reducida. 3 aulas para clases.";"Metro: Villa de Vallecas (linea 1)  Bus: 103, 142, 54, 58";"";"1";"http://www.madrid.es/sites/v/index.jsp?vgnextchannel=bfa48ab43d6bb410VgnVCM100000171f5a0aRCRD&vgnextoid=2193cb665c6e8610VgnVCM1000001d4a900aRCRD";"PASO DE VILLAMANRIQUE";"CALLE";"V";"3";"";"";"";"";"MADRID";"MADRID";"28031";"1";"CASCO H.VALLECAS";"18";"VILLA DE VALLECAS";"447122";"4469857";"40.37762362093048";"-3.6229095774784765";"657 181 582";"";"";"/contenido/entidadesYorganismos/Teatros"; 
2185;"Teatro Muñoz Seca";"";"";"";"Metro: Sol (lineas 1, 2 y 3), Gran Via (lineas 1 y 5), Sevilla (linea 2), Callao (lineas 3 y 5).  Bus: 002.  Cercanias Renfe: Sol (lineas C3 y C4).  Bicimad: Estaciones 56 (plaza del Carmen, 1), 210 (calle Tres Cruces, 7).  Aparcamientos: Plaza del Carmen (8); el Corte Ingles Preciados (93), calle Preciados.";"";"3";"http://www.madrid.es/sites/v/index.jsp?vgnextchannel=bfa48ab43d6bb410VgnVCM100000171f5a0aRCRD&vgnextoid=7b5d8c7c0f91f010VgnVCM1000000b205a0aRCRD";"CARMEN";"PLAZA";"V";"1";"";"";"";"";"MADRID";"MADRID";"28013";"6";"SOL";"1";"CENTRO";"440336";"4474436";"40.41841411050799";"-3.703270693985126";"915 232 128";"";"info@teatromunozseca.es";"/contenido/entidadesYorganismos/Teatros"; 
10037829;"Teatro Nuev9 Norte";"";"";"";"Metro: Noviciado (linea 2).  Bus: 002, 147, 3.  Bicimad: Estacion 15 (calle Norte, 8).";"";"3";"http://www.madrid.es/sites/v/index.jsp?vgnextchannel=bfa48ab43d6bb410VgnVCM100000171f5a0aRCRD&vgnextoid=7ac150fba2504510VgnVCM2000001f4a900aRCRD";"NORTE";"CALLE";"V";"9";"";"";"";"";"MADRID";"MADRID";"28015";"5";"UNIVERSIDAD";"1";"CENTRO";"439975";"4475283";"40.42601717514524";"-3.7076146318877625";"626 091 278";"";"contacto@nuevenorte.com";"/contenido/entidadesYorganismos/Teatros"; 
10511703;"Teatro Pavon";"";"";"";"Metro: Latina (linea 5), Tirso de Molina (linea 1).  Bus: M1.   Bicimad:   Estacion 44 (calle Meson de Paredes, 35).";"";"3";"http://www.madrid.es/sites/v/index.jsp?vgnextchannel=bfa48ab43d6bb410VgnVCM100000171f5a0aRCRD&vgnextoid=6d6f459f66cee510VgnVCM2000001f4a900aRCRD";"EMBAJADORES";"CALLE";"V";"9";"";"";"";"";"MADRID";"MADRID";"28012";"2";"EMBAJADORES";"1";"CENTRO";"440080";"4473507";"40.41002883652138";"-3.7061994964420886";"914 567 513";"";"taquilla@elpavonteatro.es";"/contenido/entidadesYorganismos/Teatros"; 
2202;"Teatro Pradillo";"";"";"";"Metro: Concha Espina (linea 9).  Bus: 16, 29, 52.";"";"3";"http://www.madrid.es/sites/v/index.jsp?vgnextchannel=bfa48ab43d6bb410VgnVCM100000171f5a0aRCRD&vgnextoid=f7ad8c7c0f91f010VgnVCM1000000b205a0aRCRD";"PRADILLO";"CALLE";"V";"12";"";"";"";"";"MADRID";"MADRID";"28002";"3";"CIUDAD JARDIN";"5";"CHAMARTIN";"442785";"4477765";"40.448573903848";"-3.6747122950899285";"914 169 011";"";"pradillo@teatropradillo.com";"/contenido/entidadesYorganismos/Teatros"; 
31360;"Teatro Principe Gran Via";"";"";"";"Metro: Gran Via (lineas 1 y 5).  Bus: 002, 001, 1, 146, 2, 46, 74, 3.  Bicimad: Estaciones 210 (Tres Cruces, 7), 211 (calle Desengaño, 1), 56 (plaza del Carmen, 1).  Aparcamientos: plaza del Carmen (8); Barco 1 (88), calle Barco; el Corte Ingles Preciados (93), calle Preciados.";"";"3";"http://www.madrid.es/sites/v/index.jsp?vgnextchannel=bfa48ab43d6bb410VgnVCM100000171f5a0aRCRD&vgnextoid=fabd8c7c0f91f010VgnVCM1000000b205a0aRCRD";"TRES CRUCES";"CALLE";"V";"8";"";"";"";"";"MADRID";"MADRID";"28013";"6";"SOL";"1";"CENTRO";"440382";"4474548";"40.419428942506514";"-3.7027432836384193";"915 318 514";"";"entradas@grupomarquina.es";"/contenido/entidadesYorganismos/Teatros"; 
87056;"Teatro Quique San Francisco";"La sala del Teatro Quique San Francisco ofrece una variada programacion teatral dirigida tanto para adultos como para niños. En la temporada estival, algunas de las representaciones tienen lugar al aire libre.";"Horario segun funciones.";"Aforo: 191 butacas";"Metro: Quevedo (linea 2)  Bus: 2, 16, 61  Bicimad: Estacion 127 (calle Fernando el Catolico, 19)";"";"1";"http://www.madrid.es/sites/v/index.jsp?vgnextchannel=bfa48ab43d6bb410VgnVCM100000171f5a0aRCRD&vgnextoid=346c8c7c0f91f010VgnVCM1000000b205a0aRCRD";"GALILEO";"CALLE";"V";"39";"";"";"";"";"MADRID";"MADRID";"28015";"2";"ARAPILES";"7";"CHAMBERI";"439741";"4476139";"40.433719454283505";"-3.7104468992841753";"913 485 124 (taquilla)";"";"taquilla@teatroquiquesanfrancisco.es";"/contenido/entidadesYorganismos/Teatros"; 
2187;"Teatro Reina Victoria";"";"";"";"Metro: Sol (lineas 1, 2 y 3), Sevilla (linea 2).  Bus: 002, 51, M1, 53, 15, 20, 150, 5, 46, 52  Cercanias Renfe: Sol (lineas C3 y C4).  Bicimad: Estaciones 28 (calle Alcala, 27), 33 (calle Carretas, 8), 52 (plaza de Santa Ana, 10).  Aparcamiento: Sevilla (41), calle Sevilla y Calle Alcala; Hub de Movilidad Canalejas 360 (1239), calle de Alcala, 17.";"";"3";"http://www.madrid.es/sites/v/index.jsp?vgnextchannel=bfa48ab43d6bb410VgnVCM100000171f5a0aRCRD&vgnextoid=1bfd8c7c0f91f010VgnVCM1000000b205a0aRCRD";"SAN JERONIMO";"CARRERA";"V";"24";"";"";"";"";"MADRID";"MADRID";"28014";"3";"CORTES";"1";"CENTRO";"440629";"4474223";"40.41652126622025";"-3.6998037829414807";"913 692 288";"";"info@elteatroreinavictoria.com";"/contenido/entidadesYorganismos/Teatros"; 
17361;"Teatro Rialto";"";"";"";"Metro: Santo Domingo (linea 2), Callao (lineas 3 y 5).  Bus: 001, 1, 133, 147, 148, 2, 44, 46, 74, 75, 146, 3.  Bicimad: Estaciones 23 (plaza de Santo Domingo, 1), 2 (calle Miguel Moya, 1), 22 (calle Jacometrezo, 3), 16 (San Bernardo, 22), 16 (calle San Bernardo, 22).  Aparcamientos: Isabel la Catolica (98) calle de Isabel la Catolica; Luna-Tudescos (102), Tudescos; Luna-Tudescos (14) plaza Santa Maria Soledad Torres Acosta.";"";"3";"http://www.madrid.es/sites/v/index.jsp?vgnextchannel=bfa48ab43d6bb410VgnVCM100000171f5a0aRCRD&vgnextoid=b12d8c7c0f91f010VgnVCM1000000b205a0aRCRD";"GRAN VIA";"CALLE";"V";"54";"";"";"";"";"MADRID";"MADRID";"28013";"5";"UNIVERSIDAD";"1";"CENTRO";"439991";"4474769";"40.42139454047835";"-3.707366153320881";"910 839 500";"";"atencionalcliente@somproduce.com";"/contenido/entidadesYorganismos/Teatros"; 
2205;"Teatro Sala Cuarta Pared";"";"";"";"Metro: Embajadores (linea 3), Acacias (linea 5).  Bus: 148, 60, 78, 116, 118, 119, 34, 36, 62, C2, 41, C03, 27, C1, M1.  Cercanias Renfe: Embajadores (linea C5).  Bicimad: Estaciones 47 (glorieta de Embajadores, 6), 170 (paseo de la Esperanza, 21).";"";"3";"http://www.madrid.es/sites/v/index.jsp?vgnextchannel=bfa48ab43d6bb410VgnVCM100000171f5a0aRCRD&vgnextoid=4c0208231f91f010VgnVCM2000000c205a0aRCRD";"ERCILLA";"CALLE";"V";"17";"";"";"";"";"MADRID";"MADRID";"28005";"2";"ACACIAS";"2";"ARGANZUELA";"440371";"4472701";"40.40278578703392";"-3.7027011010089894";"915 172 317";"";"cuartapared@cuartapared.es";"/contenido/entidadesYorganismos/Teatros"; 
10038763;"Teatro Sala Mirador";"";"";"";"Metro: Lavapies (Linea 3), Embajadores (linea 3).  Bus: 119, 27, 34, 36, 41, C03, C1, C2, M1.  Cercanias Renfe: Embajadores (linea C5).  Bicimad: Estaciones 49 (ronda de Atocha, 34), 53 (plaza de Lavapies).  Aparcamiento: Garaje Amparo (75), calle Amparo.";"";"3";"http://www.madrid.es/sites/v/index.jsp?vgnextchannel=bfa48ab43d6bb410VgnVCM100000171f5a0aRCRD&vgnextoid=8103d852ee904510VgnVCM2000001f4a900aRCRD";"DOCTOR FOURQUET";"CALLE";"V";"31";"local 3";"";"";"";"MADRID";"MADRID";"28012";"2";"EMBAJADORES";"1";"CENTRO";"440697";"4473173";"40.40706813699774";"-3.6988988076525446";"915 289 504";"";"taquilla@lamirador.com";"/contenido/entidadesYorganismos/Teatros"; 
2189;"Teatro Sanpol";"";"";"";"Metro: Principe Pio (Lineas 6, 10 y Ramal).  Bus: 41, 75, 46.  Renfe: Principe Pio (lineas C1, C7 y C10).  Bicimad: Estacion 161 (paseo de la Florida, 8).";"";"3";"http://www.madrid.es/sites/v/index.jsp?vgnextchannel=bfa48ab43d6bb410VgnVCM100000171f5a0aRCRD&vgnextoid=331e8c7c0f91f010VgnVCM1000000b205a0aRCRD";"SAN POL DE MAR";"CALLE";"V";"1";"";"";"";"";"MADRID";"MADRID";"28008";"1";"CASA DE CAMPO";"9";"MONCLOA-ARAVACA";"438363";"4475066";"40.42395111326244";"-3.726586966145146";"915 419 089";"915 479 946";"teatro@teatrosanpol.com";"/contenido/entidadesYorganismos/Teatros"; 
161000;"Teatro Tarambana";"";"";"";"Metro: Carabanchel (linea 5).  Bus: 35.";"";"3";"http://www.madrid.es/sites/v/index.jsp?vgnextchannel=bfa48ab43d6bb410VgnVCM100000171f5a0aRCRD&vgnextoid=53cf8c89dd91f010VgnVCM2000000c205a0aRCRD";"DOLORES ARMENGOT";"CALLE";"V";"31";"";"";"";"";"MADRID";"MADRID";"28025";"4";"VISTA ALEGRE";"11";"CARABANCHEL";"436917";"4470844";"40.38580831044196";"-3.743215284694563";"914 618 334";"";"info@tarambana.net";"/contenido/entidadesYorganismos/Teatros"; 
135051;"Teatro Tribueñe";"";"";"";"Metro: Ventas (lineas 2 y 5), Manuel Becerra (lineas 2 y 6).  Bus: 12.  Bicimad: Estacion 185 (Sancho Davila esquina Paseo Marques de Zafra).";"";"3";"http://www.madrid.es/sites/v/index.jsp?vgnextchannel=bfa48ab43d6bb410VgnVCM100000171f5a0aRCRD&vgnextoid=96df2189cb81c010VgnVCM1000000b205a0aRCRD";"SANCHO DAVILA";"CALLE";"V";"31";"";"";"";"";"MADRID";"MADRID";"28028";"3";"FUENTE DEL BERRO";"4";"SALAMANCA";"443879";"4475204";"40.42558036809144";"-3.661585724582637";"912 427 727";"";"teatro@teatrotribuene.com";"/contenido/entidadesYorganismos/Teatros"; 
173052;"Teatro Valle Inclan. Centro Dramatico Nacional";"";"";"";"Metro: Lavapies (linea 3).  Bus: M1.  Bicimad: Estacion 53 (calle de Valencia, 1).  Aparcamiento: Garaje calle Amparo (75).";"";"3";"http://www.madrid.es/sites/v/index.jsp?vgnextchannel=bfa48ab43d6bb410VgnVCM100000171f5a0aRCRD&vgnextoid=67c08c89dd91f010VgnVCM2000000c205a0aRCRD";"ANA DIOSDADO";"PLAZUELA";"V";"";"";"";"";"";"MADRID";"MADRID";"";"";"";"";"DISTRITO";"440549";"4473297";"40.40816959733343";"-3.7006531533366718";"915 058 800";"";"cdn@inaem.cultura.gob.es";"/contenido/entidadesYorganismos/Teatros"; 
174525;"Teatro Victoria";"";"";"";"Metro: Noviciado (linea 2).  Bus: 002.  Bicimad: Estaciones 16 (calle San Bernardo, 22), 17 (plaza de Carlos Carbonero, 2), 59 (calle Espiritu Santo, 30).";"";"3";"http://www.madrid.es/sites/v/index.jsp?vgnextchannel=bfa48ab43d6bb410VgnVCM100000171f5a0aRCRD&vgnextoid=cbe08c89dd91f010VgnVCM2000000c205a0aRCRD";"PEZ";"CALLE";"V";"17";"";"";"";"";"MADRID";"MADRID";"28004";"5";"UNIVERSIDAD";"1";"CENTRO";"440143";"4475035";"40.423796586306075";"-3.705602340628895";"692 686 260";"";"info@teatrovictoria.net";"/contenido/entidadesYorganismos/Teatros"; 
11466221;"TeatroLAB Madrid";"";"";"";"Metro: Carpetana (Linea 6), Carabanchel (linea 5).  Bus: 17.";"";"3";"http://www.madrid.es/sites/v/index.jsp?vgnextchannel=bfa48ab43d6bb410VgnVCM100000171f5a0aRCRD&vgnextoid=733a7509ab8eb710VgnVCM1000001d4a900aRCRD";"LUIS FEITO";"CALLE";"V";"24";"";"";"";"";"MADRID";"MADRID";"28047";"4";"ALUCHE";"10";"LATINA";"436794";"4471519";"40.39188020285107";"-3.7447341234745273";"";"";"info@teatrolabmadrid.com";"/contenido/entidadesYorganismos/Teatros"; 
5000655;"Teatros del Canal";"Descripcion monumental: Arquitecto Juan Navarro Baldeweg. Inaugurado oficialmente el 20 de febrero de 2009.";"Taquillas: Todos los dias de 14:30 h a 21 horas. Los meses de julio y agosto el horario de taquilla puede variar.";"Servicios de accesibilidad a la comunicacion: subtitulado adaptado, audiodescripcion, bucle magnetico individual, sonido en sala con auriculares (Mas informacion y proximas funciones en www.teatroaccesible.com).";"Metro: Canal (lineas 2 y 7).  Bus: 149, 37, 12, 3.  Bicimad: Estacion 201 (Jose Abascal, frente al numero 2).";"";"1,6";"http://www.madrid.es/sites/v/index.jsp?vgnextchannel=bfa48ab43d6bb410VgnVCM100000171f5a0aRCRD&vgnextoid=8f63986ba58bc110VgnVCM1000000b205a0aRCRD";"CEA BERMUDEZ";"CALLE";"V";"1";"";"";"";"";"MADRID";"MADRID";"28003";"2";"ARAPILES";"7";"CHAMBERI";"440203";"4476672";"40.438548128643944";"-3.7050571160614263";"913 089 999 / 913 089 950";"";"espectaculos@uteteatrosdelcanal.com";"/contenido/entidadesYorganismos/Teatros"; 
10037669;"Teatros Luchana";"";"";"";"Metro: Iglesia (linea 1), Bilbao (lineas 1 y 4), Alonso Martinez (lineas 4, 5 y 10), Quevedo (linea 2).  Bus: 147, 40, 3, 37.  Bicimad: Estacion 124 (calle Manuel Silvela, 20).  Aparcamiento: Plaza de Olavide (52).";"";"3";"http://www.madrid.es/sites/v/index.jsp?vgnextchannel=bfa48ab43d6bb410VgnVCM100000171f5a0aRCRD&vgnextoid=668632e49e404510VgnVCM2000001f4a900aRCRD";"LUCHANA";"CALLE";"V";"38";"";"";"";"";"MADRID";"MADRID";"28010";"3";"TRAFALGAR";"7";"CHAMBERI";"440780";"4475934";"40.43193878823772";"-3.698178873794016";"910 075 684";"";"taquilla@teatrosluchana.es";"/contenido/entidadesYorganismos/Teatros"; 
10038955;"Teatro. Arte &amp; Desmayo";"";"";"";"Metro: Marques de Vadillo (Linea 5).  Bus: 116.  Bicimad: Estacion 354 (calle Jacinto Verdaguer, 12).";"";"3";"http://www.madrid.es/sites/v/index.jsp?vgnextchannel=bfa48ab43d6bb410VgnVCM100000171f5a0aRCRD&vgnextoid=fe5f364c13a04510VgnVCM2000001f4a900aRCRD";"BALEARES";"CALLE";"V";"14";"local 3";"";"";"";"MADRID";"MADRID";"28019";"1";"COMILLAS";"11";"CARABANCHEL";"439442";"4471824";"40.394818509595254";"-3.7135603167319573";"609 158 578";"";"artedesmayo@gmail.com";"/contenido/entidadesYorganismos/Teatros"; 
187464;"Teatro. Artespacio Plot Point";"";"";"";"Metro: Embajadores (linea 3), Acacias (linea 5).  Autobuses: 148, 60, 78.  Cercanias Renfe: Embajadores (linea C5).  Bicimad: Estaciones 170 (paseo de la Esperanza, 21), 47 (glorieta de Embajadores, 6), 121 (paseo de Santa Maria de la Cabeza, 58).";"";"3";"http://www.madrid.es/sites/v/index.jsp?vgnextchannel=bfa48ab43d6bb410VgnVCM100000171f5a0aRCRD&vgnextoid=ea2dd2bec675e010VgnVCM1000000b205a0aRCRD";"ERCILLA";"CALLE";"V";"29";"";"";"";"";"MADRID";"MADRID";"28005";"2";"ACACIAS";"2";"ARGANZUELA";"440426";"4472606";"40.401936015245106";"-3.702039763916271";"914 749 765";"";"info@plotpoint.es";"/contenido/entidadesYorganismos/Teatros"; 
6831483;"Teatro. Bululu 2120";"";"";"";"Metro: Palos de la Frontera (linea 3), Delicias (linea 3).  Bus: 19, 247, 45, 47, 8, 86, 55, 6, 59, 85.  Cercanias Renfe: Delicias (Lineas C1 y C10).  Bicimad: Estaciones 121 (paseo de Santa Maria de la Cabeza, 58), 120 (calle Palos de la Frontera, 27).";"";"3";"http://www.madrid.es/sites/v/index.jsp?vgnextchannel=bfa48ab43d6bb410VgnVCM100000171f5a0aRCRD&vgnextoid=11fee3831910d310VgnVCM1000000b205a0aRCRD";"CANARIAS";"CALLE";"V";"16";"";"";"";"";"MADRID";"MADRID";"28045";"6";"PALOS DE MOGUER";"2";"ARGANZUELA";"440896";"4472605";"40.401958738062355";"-3.6965212526388838";"913 600 193";"";"bululu@bululu2120.com";"/contenido/entidadesYorganismos/Teatros"; 
10037710;"Teseo Teatro";"";"";"";"Metro: Puerta de Toledo (linea 5).  Bus: C2, C1, 41.  Bicimad: Estacion 236 (paseo Imperial, 20).  Aparcamiento: Parking VOT (97), Ventosa.";"";"3";"http://www.madrid.es/sites/v/index.jsp?vgnextchannel=bfa48ab43d6bb410VgnVCM100000171f5a0aRCRD&vgnextoid=f852a73970504510VgnVCM2000001f4a900aRCRD";"SEGOVIA";"RONDA";"V";"61";"";"";"";"";"MADRID";"MADRID";"28005";"1";"PALACIO";"1";"CENTRO";"439256";"4473343";"40.40849618377386";"-3.715902634905134";"652 243 748";"";"telon@teseoteatro.com";"/contenido/entidadesYorganismos/Teatros"; 
10511907;"Theatre for the people";"";"";"";"Metro: Noviciado (linea 2), Chueca (linea 5), Tribunal (lineas 1 y 10), Callao (linea 3 y 5), Gran Via (lineas 1 y 5).  Bus: 002.  Bicimad: Estaciones 17 (plaza de Carlos Carbonero, 2), 55 (plaza de San Ildefonso)  Aparcamientos: Luna-Tudescos (14) plaza Santa Maria Soledad Torres Acosta; Barco (1), calle Barco.";"";"3";"http://www.madrid.es/sites/v/index.jsp?vgnextchannel=bfa48ab43d6bb410VgnVCM100000171f5a0aRCRD&vgnextoid=0ad1fef1bacee510VgnVCM1000001d4a900aRCRD";"CARLOS CAMBRONERO";"PLAZA";"V";"5";"";"";"";"";"MADRID";"MADRID";"28004";"5";"UNIVERSIDAD";"1";"CENTRO";"440289";"4474961";"40.42314671010554";"-3.7038821535136424";"915 215 568";"";"adan.black@theatreforthepeople.com";"/contenido/entidadesYorganismos/Teatros"; 

